{"features":[{"osm_type":"relation","name":"제주도","geometry":{"coordinates":[[[[127.2374078,33.46515200000001],[127.21020800000001,33.3979349],[127.1782104,33.3537756],[127.13683999999999,33.29267120000001],[127.02241049999999,33.1424682],[126.7966758,33.0248003],[126.7129308,33.002791200000004],[126.6231004,32.9960175],[126.53175940000001,32.9803301],[126.5013326,32.984504799999996],[126.4794284,32.954845799999994],[126.44443520000002,32.9289074],[126.37707529999999,32.897916800000004],[126.28006940000002,32.87787999999999],[126.2218762,32.87875220000001],[126.1635114,32.8868179],[126.1094466,32.9202764],[126.0840407,32.9375808],[126.0437089,32.9747068],[126.02034579999999,33.008981399999996],[125.99547199999999,33.060386300000005],[125.98687179999999,33.100638700000005],[125.96695910000001,33.121185800000006],[125.94602500000002,33.133850900000006],[125.9055043,33.211132000000006],[125.89314470000001,33.2942495],[125.8986464,33.39537670000001],[125.9021507,33.4274889],[125.94792180000002,33.482513700000005],[126.0668832,33.593810700000006],[126.15339189999999,33.656425],[126.16970829999998,33.67823390000001],[125.79066670000002,33.72894180000001],[126.08579449999999,34.0076688],[126.17280099999998,34.080595100000004],[126.21750170000001,34.108763100000004],[126.2517309,34.124353500000005],[126.28459550000001,34.1274442],[126.3124562,34.122904000000005],[126.3359137,34.1131975],[126.3669852,34.0992545],[126.4954641,34.020681599999996],[126.58924809999999,33.958379],[126.6543292,33.9279035],[126.700785,33.902230900000006],[126.79764070000002,33.845564399999994],[126.89274009999998,33.800577],[126.95923490000001,33.7741815],[127.0856076,33.72579710000001],[127.1525298,33.676419700000004],[127.19571979999999,33.628936300000014],[127.2433816,33.534198700000005],[127.2374078,33.46515200000001]]]],"type":"MultiPolygon"},"id":2398560,"type":"Feature","properties":{"official_name:zh":"濟州特別自治道","official_name:en":"Jeju Special Self-Governing Province","name:sr":"Чеџу","ISO3166-2":"KR-49","name:ca":"Jeju-do","name:sv":"Jeju","name:ko":"제주도","name:sw":"Jeju-do","is_in:country_code":"KR","name:gl":"Jeju","admin_level":"4","name:cs":"Čedžu","official_name:ja":"済州特別自治道","name:vi":"Jeju (tỉnh)","name:ar":"مقاطعة جيجو","name:ja":"済州道","is_in":"대한민국","name:fa":"ججو-دو","name:ro":"Insula Jeju","name:nl":"Jeju-do","name:be":"Чэджуда","name:fi":"Jeju","name:ru":"Чеджудо","name:no":"Jeju","alt_name:en":"Jeju Special Autonomous Province","name:bg":"Чеджу-до","name":"제주도","name:bn":"জেজু দ্বীপ","name:fr":"Jeju","name:jv":"Jejudo","short_name":"제주","boundary":"administrative","official_name":"제주특별자치도","name:ia":"Jeju-do","name:uk":"Провінція Чеджу","name:id":"Jeju","name:io":"Jeju insulo","name:ms":"Jeju","name:it":"Jeju-do","name:en":"Jeju-do","name:eo":"Jeju-do","wikipedia":"en:Jeju Province","name:et":"Cheju provints","name:eu":"Jejudo","name:es":"Jeju","name:cv":"Чеджу","name:th":"เกาะเชจู","name:pl":"Czedżu","is_in:continent":"Asia","name:da":"Jeju-do","name:he":"ג'ג'ו","name:pt":"Jeju","name:de":"Jeju-do","official_name:ko":"제주특별자치도","name:lt":"Čedžu","name:hr":"Jeju","is_in:country":"Republic of Korea","name:hu":"Csedzsu-sziget"}},{"osm_type":"relation","name":"울산","geometry":{"coordinates":[[[[129.7034608,35.4707795],[129.66903409999998,35.3999801],[129.60755359999996,35.3675247],[129.5984555,35.281522800000005],[129.5556432,35.24061520000001],[129.5033723,35.19262390000001],[129.3158919,35.317115],[129.29238740000002,35.3369032],[129.28122940000003,35.3575383],[129.2711229,35.3779581],[129.25110610000002,35.3858998],[129.2288982,35.3807656],[129.20860349999998,35.39565590000001],[129.21383919999997,35.415733900000006],[129.2004196,35.4358488],[129.17985019999995,35.432729800000004],[129.15847840000004,35.436785900000004],[129.1356389,35.45638159999999],[129.1161338,35.4764689],[129.10510459999998,35.4966316],[129.08414900000002,35.5024243],[129.0640934,35.511039],[129.04392319999997,35.53101830000001],[129.02298050000002,35.525779500000006],[129.0012911,35.5258005],[128.9935663,35.5459856],[128.98283750000004,35.56630530000001],[129.00300769999998,35.57510200000001],[129.0231779,35.5906682],[129.02197630000003,35.61223270000001],[129.0187748,35.6324449],[129.03937419999997,35.63579330000001],[129.05999930000002,35.648474300000004],[129.0800407,35.6489974],[129.0691574,35.66947230000001],[129.07568049999998,35.689767599999996],[129.0960117,35.7028042],[129.11645009999998,35.70830850000001],[129.13707519999997,35.7152915],[129.1577347,35.7175773],[129.17850569999996,35.717159200000005],[129.19927669999998,35.7150685],[129.21960139999996,35.716681799999996],[129.23978879999999,35.70503280000001],[129.2604139,35.6958496],[129.25998479999998,35.67535710000001],[129.2622145,35.6538101],[129.2850798,35.65115290000001],[129.3058701,35.65741739999999],[129.32593950000003,35.658972600000006],[129.3469315,35.675078600000006],[129.3675116,35.6746393],[129.38782990000004,35.669814300000006],[129.41065439999997,35.663822700000004],[129.4306916,35.6564184],[129.45078780000003,35.650689099999994],[129.48823250000004,35.6334917],[129.7203437,35.62578310000001],[129.7034608,35.4707795]]]],"type":"MultiPolygon"},"id":2395867,"type":"Feature","properties":{"official_name:zh":"蔚山广域市","official_name:en":"Ulsan Metropolitan City","ISO3166-2":"KR-31","name:ca":"Ulsan","name:sv":"Ulsan","name:ko":"울산","name:sw":"Ulsan","is_in:country_code":"KR","ref":"07","name:kl":"Ulsan","admin_level":"4","official_name:ja":"蔚山広域市","name:vi":"Ulsan","name:ar":"أولسان","name:ja":"蔚山広域市","is_in":"대한민국","name:fa":"اولسان","name:ro":"Ulsan","name:nl":"Ulsan","population":"1129827","name:fi":"Ulsan","name:ru":"Ульсан","name:no":"Ulsan","name:bi":"Ulsan","name:bg":"Улсан","name":"울산","name:fr":"Ulsan","boundary":"administrative","official_name":"울산광역시","name:id":"Ulsan","name:mi":"Ulsan","name:mn":"Үлсан","name:af":"Ulsan","name:mr":"उल्सान","name:io":"Ulsan","name:it":"Ulsan","name:en":"Ulsan","name:eo":"Ulsan","wikipedia":"en:Ulsan","name:et":"Ulsan","name:eu":"Ulsan","name:es":"Ulsan","name:zh":"蔚山","name:th":"อุลซัน","name:tl":"Ulsan","name:pl":"Ulsan","is_in:continent":"Asia","name:da":"Ulsan","name:he":"אולסן","name:pt":"Ulsan","name:de":"Ulsan","name:lt":"Ulsanas","is_in:country":"Republic of Korea"}},{"osm_type":"relation","name":"전라북도","geometry":{"coordinates":[[[[127.89995590000001,35.9637667],[127.8929177,35.98448349999999],[127.87824069999999,36.004674099999995],[127.8653664,36.025206600000004],[127.845222,36.038698200000006],[127.8249058,36.031733200000005],[127.80447809999998,36.0262496],[127.7833638,36.016530800000005],[127.76173440000001,36.02545130000001],[127.74100630000001,36.024896],[127.72087049999999,36.03313530000001],[127.6997647,36.03874330000001],[127.67932839999999,36.0565921],[127.65834229999997,36.0469829],[127.63899609999999,36.0674957],[127.6185601,36.0509042],[127.63396460000001,36.0302586],[127.61263779999999,36.0225865],[127.6132386,36.0010291],[127.59276799999999,36.020261],[127.57274369999999,36.025784900000005],[127.552125,36.0330698],[127.5317445,36.035705500000006],[127.53760890000001,36.0155194],[127.5347958,35.9942482],[127.51432090000002,35.9831469],[127.4930778,35.9837928],[127.47243119999999,35.9836001],[127.45224390000001,35.9887464],[127.4389187,36.008771],[127.4187914,36.021579900000006],[127.39878849999998,36.009883599999995],[127.3782406,36.02703090000001],[127.3670827,36.04813020000001],[127.36038789999999,36.0686618],[127.36022480000001,36.0888343],[127.3547059,36.1096916],[127.33419020000001,36.1296491],[127.3139921,36.118878900000006],[127.29386480000001,36.1122226],[127.27218819999999,36.1062626],[127.2501813,36.106533000000006],[127.24194150000001,36.085588200000004],[127.2204452,36.097171],[127.1994897,36.08615],[127.1779032,36.091005300000006],[127.15747979999999,36.08382459999999],[127.1365414,36.08517200000001],[127.12576109999998,36.0647835],[127.1052819,36.0727047],[127.08512460000001,36.0769572],[127.06310470000001,36.091976300000006],[127.05699779999999,36.113117],[127.0489941,36.134266],[127.02688409999999,36.13732290000001],[127.00465330000002,36.1510188],[126.9822158,36.1471602],[126.9583476,36.156867899999995],[126.93362840000002,36.145501900000006],[126.91114080000001,36.135659200000006],[126.8861898,36.1348205],[126.8745769,36.10945230000001],[126.8630756,36.0593715],[126.83469140000001,36.0496499],[126.8111738,36.0338263],[126.78936420000001,36.029960100000004],[126.7634519,36.026343700000005],[126.74353920000001,36.0056413],[126.7231115,35.9942534],[126.6989072,36.000225300000004],[126.66800819999999,35.993975600000006],[126.64742600000001,35.9942673],[126.62220029999999,35.98985749999999],[126.59951530000001,35.9838362],[126.5665563,36.000086399999994],[126.5670713,36.034936800000004],[126.5799459,36.06075220000001],[126.51351290000001,36.0880852],[126.37635549999999,36.1475742],[126.0317198,36.16241220000001],[125.5292062,36.279877],[125.7298203,36.0613461],[125.810278,35.879356],[125.84198390000002,35.6746104],[125.79916220000001,35.5506178],[125.9582968,35.50489149999999],[126.42877719999998,35.4300413],[126.44946100000001,35.42815420000001],[126.470275,35.425531500000005],[126.49134640000001,35.41196179999999],[126.48645400000001,35.391463099999996],[126.49606920000002,35.3707142],[126.49412090000003,35.350359],[126.51446270000001,35.3567293],[126.51856120000001,35.334868699999994],[126.5274167,35.312604699999994],[126.54756550000002,35.312937399999996],[126.5684867,35.3109938],[126.59091000000001,35.31066109999999],[126.5913413,35.33109459999999],[126.6124792,35.3292556],[126.63308079999999,35.32039090000001],[126.6550534,35.329844699999995],[126.66689809999998,35.35182909999999],[126.68867329999999,35.3479683],[126.70981340000002,35.364359],[126.73124530000001,35.378412600000004],[126.7228167,35.3999885],[126.74492670000002,35.408618000000004],[126.751437,35.4296054],[126.74460060000003,35.45084609999999],[126.76560330000001,35.465856200000005],[126.78706100000001,35.46872230000001],[126.8078063,35.468149100000005],[126.8295043,35.4832958],[126.8388942,35.462839800000005],[126.86018879999999,35.46194139999999],[126.880462,35.4552334],[126.89766890000001,35.4350079],[126.91675120000001,35.4149138],[126.9338315,35.394660699999996],[126.95528920000001,35.3943808],[126.9764035,35.40606459999999],[126.9724553,35.427328900000006],[126.9939988,35.4393576],[127.0149415,35.457676899999996],[127.03502590000001,35.464877599999994],[127.036485,35.4444622],[127.0501063,35.424027699999996],[127.04744560000002,35.4030424],[127.0265286,35.3996982],[127.03791840000001,35.379252300000005],[127.05857779999998,35.38186959999999],[127.0683024,35.3609852],[127.07073139999999,35.34027749999999],[127.0496772,35.3349457],[127.0611785,35.314570999999994],[127.08235719999999,35.3083025],[127.1035831,35.2999845],[127.1240409,35.3033713],[127.14557579999999,35.3093251],[127.1644586,35.329424499999995],[127.18488629999999,35.3262734],[127.20497060000001,35.3155585],[127.22728660000001,35.334606099999995],[127.24916920000003,35.31962049999999],[127.270262,35.31261],[127.29189140000001,35.3123298],[127.31491970000002,35.305612800000006],[127.3378022,35.3154395],[127.3578093,35.3210107],[127.37858039999999,35.3066529],[127.3986004,35.31192709999999],[127.41117030000001,35.3339024],[127.4256671,35.3539923],[127.4458588,35.3605478],[127.46641950000001,35.364596999999996],[127.48811320000002,35.3591338],[127.50844649999999,35.3533062],[127.5296681,35.33796699999999],[127.5504949,35.32577090000001],[127.57122790000001,35.3139355],[127.5918584,35.31148499999999],[127.6136702,35.328194700000005],[127.61844229999998,35.3487218],[127.61302640000001,35.368860399999996],[127.62883859999998,35.389118200000006],[127.64907529999999,35.4077655],[127.66594099999999,35.42815510000001],[127.66156370000002,35.4493087],[127.64070679999999,35.455111900000006],[127.63650109999999,35.475909],[127.6505344,35.49635130000001],[127.6346987,35.5168582],[127.61946370000001,35.536940900000005],[127.59916480000001,35.545601],[127.5894745,35.566071],[127.6099108,35.5841205],[127.61315520000001,35.605166800000006],[127.6281197,35.626312200000015],[127.62045079999999,35.6470771],[127.6354669,35.6674653],[127.64103940000001,35.6877786],[127.65967109999998,35.708161600000004],[127.66226960000002,35.728170200000015],[127.6619907,35.7492656],[127.6801739,35.77057830000001],[127.7009793,35.789337],[127.720995,35.8019483],[127.7335563,35.822029],[127.74972900000002,35.842730800000005],[127.7705493,35.8390379],[127.79073460000001,35.85164299999999],[127.81190470000001,35.8527005],[127.8319977,35.869828],[127.85266360000001,35.8831393],[127.8675333,35.9034955],[127.8877679,35.911629299999994],[127.89111530000001,35.932168700000005],[127.91124260000002,35.94926339999999]]]],"type":"MultiPolygon"},"id":2355168,"type":"Feature","properties":{"boundary":"administrative","name:uk":"Північна провінція Чолла","name:id":"Jeolla Utara","ISO3166-2":"KR-45","name:ca":"Jeollabuk-do","name:sv":"Nordjeolla","name:ko":"전라북도","name:sw":"Jeollabuk-do","is_in:country_code":"KR","name:mn":"Умард Чолла","admin_level":"4","name:ms":"Jeolla Utara","name:it":"Nord Jeolla","name:en":"Jeollabuk-do","wikipedia":"en:North Jeolla Province","name:et":"Põhja-Chŏlla provints","name:es":"Jeolla del Norte","name:zh":"全羅北道","name:vi":"Jeolla Bắc","name:th":"จังหวัดจ็อลลาเหนือ","name:ja":"全羅北道","is_in":"대한민국","name:fa":"جئولابوک-دو","name:pl":"Jeolla Północna","is_in:continent":"Asia","name:nl":"Jeollabuk-do","name:fi":"Pohjois-Jeolla","name:ru":"Чолла-Пукто","name:pt":"Jeolla do Norte","name:de":"Jeollabuk-do","name:no":"Nord-Jeolla","name:lt":"Šiaurės Džolos provincija","alt_name:en":"North Jeolla Province","name:bg":"Чъла-Пукто","name":"전라북도","name:fr":"Jeolla du Nord","name:jv":"Jeollabuk-do","short_name":"전북","is_in:country":"Republic of Korea"}},{"osm_type":"relation","name":"대구","geometry":{"coordinates":[[[[128.7571564,35.904889299999994],[128.74135539999997,35.9255475],[128.7427261,35.9469164],[128.74542549999998,35.967106300000005],[128.73169259999997,35.98749749999999],[128.7163289,36.008218500000005],[128.69557719999997,36.0164926],[128.67540269999998,36.01412],[128.65414030000002,36.00973390000001],[128.63376409999995,36.0082775],[128.6127098,36.000695300000004],[128.5930803,35.979944499999995],[128.57265259999997,35.9766106],[128.55025080000001,35.961609499999994],[128.5297201,35.9670107],[128.53458669999998,35.94456949999999],[128.5291965,35.9238596],[128.5091379,35.9085843],[128.48842700000006,35.8977908],[128.46819670000002,35.9003111],[128.47291740000003,35.9209577],[128.4602745,35.941234099999996],[128.4390743,35.9317134],[128.4176424,35.9182469],[128.3987596,35.89753],[128.3904941,35.87428669999999],[128.3960131,35.850236499999994],[128.4348944,35.846479599999995],[128.46854000000002,35.8368779],[128.4783247,35.813773399999995],[128.4556654,35.808135400000005],[128.43306619999998,35.810415],[128.4110935,35.799625500000005],[128.39478569999997,35.77302830000001],[128.39034820000003,35.74873840000001],[128.4119776,35.7364078],[128.43477149999998,35.7168418],[128.42347890000002,35.696546700000006],[128.4001072,35.697296],[128.3775337,35.7014781],[128.35221370000002,35.692068000000006],[128.3692081,35.66669],[128.39221080000004,35.6504481],[128.39768680000003,35.62881030000001],[128.38193680000006,35.60595240000001],[128.40218430000002,35.6163495],[128.4227536,35.62397200000001],[128.44416409999997,35.63532590000001],[128.46476339999998,35.637418700000005],[128.4875086,35.63595380000001],[128.5088804,35.654088699999996],[128.51375129999997,35.675636000000004],[128.53378849999999,35.692441],[128.528085,35.71351800000001],[128.54846980000002,35.7242495],[128.5688761,35.734383900000005],[128.58985309999997,35.73234590000001],[128.60990309999997,35.726096000000005],[128.63021930000002,35.7058691],[128.651162,35.712420300000005],[128.67173559999998,35.72055980000001],[128.69178559999997,35.732851100000005],[128.69470389999998,35.7540288],[128.68703920000002,35.7745255],[128.70042880000003,35.79523960000001],[128.71392989999998,35.8160023],[128.71960969999995,35.836020999999995],[128.74027999999998,35.8521166],[128.760536,35.8663073],[128.76239850000002,35.88649159999999]]]],"type":"MultiPolygon"},"id":2395674,"type":"Feature","properties":{"name:sk":"Tägu","name:sr":"Тегу","ISO3166-2":"KR-27","name:ca":"Daegu","name:sv":"Daegu","name:ko":"대구","name:os":"Тэгу","name:sw":"Daegu","is_in:country_code":"KR","name:kl":"Daegu","admin_level":"4","name:cs":"Tegu","name:vi":"Daegu","name:ar":"ديغو","name:ja":"大邱広域市","is_in":"대한민국","name:fa":"دائجو","name:nn":"Daegu","name:ro":"Daegu","name:nl":"Daegu","population":"2528933","name:fi":"Daegu","name:ru":"Тэгу","name:no":"Daegu","name:bg":"Тегу","name":"대구","name:fr":"Daegu","boundary":"administrative","official_name":"대구광역시","name:uk":"Тегу","name:id":"Daegu","name:mi":"Daegu","name:ml":"ദേഗു","name:mn":"Тэгү","name:el":"Νταεγού","name:af":"Daegu","name:mr":"दैगू","name:io":"Daegu","name:ms":"Daegu","name:it":"Daegu","name:en":"Daegu","name:eo":"Taeguo","wikipedia":"ko:대구광역시","name:et":"Taegu","name:eu":"Daegu","name:es":"Daegu","name:zh":"大邱廣域市","name:th":"แทกู","name:tl":"Daegu","name:la":"Daegu","name:pl":"Daegu","is_in:continent":"Asia","name:da":"Daegu","name:he":"טגו","name:tr":"Daegu","name:pt":"Daegu","name:de":"Daegu","official_name:ko":"대구광역시","name:lt":"Tegu","name:lv":"Tegu","is_in:country":"Republic of Korea"}},{"osm_type":"relation","name":"광주","geometry":{"coordinates":[[[[127.0098667,35.15629739999999],[127.0101928,35.13563560000001],[127.00061290000001,35.1129094],[126.97652760000001,35.0917869],[126.95629120000001,35.076583],[126.93534849999999,35.0744055],[126.91474910000001,35.09013870000001],[126.89406390000002,35.079603399999996],[126.87320709999999,35.075740100000004],[126.85277929999998,35.073422],[126.8320942,35.0628846],[126.81140900000001,35.053329399999996],[126.79115290000001,35.059442],[126.77087109999998,35.0714551],[126.76042980000001,35.0916135],[126.7393283,35.1072802],[126.71837279999998,35.1090286],[126.69657179999999,35.1067817],[126.6761612,35.1059812],[126.65588799999998,35.1139435],[126.65422720000001,35.134652900000006],[126.6515107,35.1559886],[126.67225169999999,35.1737407],[126.6565747,35.1938036],[126.677689,35.1936634],[126.6864996,35.214562900000004],[126.70669980000001,35.21035530000001],[126.7225484,35.230479300000006],[126.7417187,35.2512993],[126.76386300000001,35.2545234],[126.75919809999999,35.23370430000001],[126.7806,35.22620250000001],[126.8021392,35.221645],[126.8231575,35.226012900000015],[126.8434221,35.2376298],[126.8664007,35.245551500000005],[126.88676829999999,35.2464628],[126.9073419,35.25851840000001],[126.92931460000001,35.25235060000001],[126.94358820000001,35.2316011],[126.9544029,35.210635800000006],[126.96023940000002,35.1898055],[126.9803152,35.1857054],[127.0008115,35.188472700000005],[127.02329920000001,35.1697416]]]],"type":"MultiPolygon"},"id":2399220,"type":"Feature","properties":{"name:sr":"Квангџу","ISO3166-2":"KR-29","name:ca":"Gwangju","name:sv":"Gwangju","name:ko":"광주","name:sw":"Gwangju","is_in:country_code":"KR","name:kl":"Gwangju","admin_level":"4","name:cs":"Kwangdžu","name:vi":"Gwangju","name:ar":"غوانغجو","name:ja":"光州広域市","is_in":"대한민국","name:fa":"گوانگجو","name:vo":"Gwangju","name:ro":"Gwangju","name:nl":"Gwangju","population":"1467996","name:fi":"Gwangju","name:ru":"Кванджу","name:no":"Gwangju","name:bi":"Gwangju","name:bg":"Куанджу","name":"광주","name:fr":"Gwangju","boundary":"administrative","official_name":"광주광역시","name:uk":"Кванджу","name:id":"Gwangju","name:mi":"Gwangju","name:mn":"Куанжү","name:af":"Gwangju","name:mr":"ग्वांगजू","name:io":"Gwangju","name:ms":"Gwangju","name:it":"Gwangju","name:en":"Gwangju","name:eo":"Gŭangĝu","wikipedia":"ko:광주광역시","name:et":"Kwangju","name:eu":"Gwangju","name:es":"Gwangju","name:zh":"光州廣域市","name:th":"ควังจู","name:tl":"Gwangju","name:la":"Quansua","name:pl":"Gwangju","is_in:continent":"Asia","name:da":"Gwangju","name:he":"קוואנגג'ו","name:tr":"Gwangju","name:pt":"Gwangju","name:de":"Gwangju","official_name:ko":"광주광역시","name:lt":"Kvandžu","name:ht":"Gouanjou","is_in:country":"Republic of Korea"}},{"osm_type":"relation","name":"경상북도","geometry":{"coordinates":[[[[132.1483256,37.2350671],[132.09699030000002,37.122510800000015],[132.06438319999998,37.0845599],[132.01391469999996,37.053666299999996],[131.8808686,37.0191075],[131.7734171,37.0316543],[131.69222990000003,37.0663855],[131.62081880000002,37.13839330000001],[131.58442650000003,37.2145365],[131.60142100000002,37.315502200000005],[131.6391865,37.375555500000004],[131.70647780000002,37.427791],[131.79110680000002,37.4549137],[131.87470589999998,37.4583954],[132.02130480000002,37.4187866],[132.089111,37.3703784],[132.1385323,37.29715120000001],[132.1483256,37.2350671]]],[[[131.20075479999997,37.5498338],[131.19526159999998,37.478982],[131.1241938,37.3365239],[131.00351589999997,37.25913080000001],[130.88232290000005,37.235907600000004],[130.65659680000002,37.289954200000004],[130.597202,37.3338283],[130.54243340000002,37.4342727],[130.51566279999997,37.52256860000001],[130.60851449999998,37.681065399999994],[130.76954999999995,37.7432619],[130.91202890000002,37.764231300000006],[131.1008564,37.7031865],[131.20075479999997,37.5498338]]],[[[129.84822620000003,36.0439296],[129.7946473,35.8473325],[129.7203437,35.62578310000001],[129.48823250000004,35.6334917],[129.44847030000003,35.651049099999994],[129.4280845,35.65768069999999],[129.40798940000002,35.66335720000001],[129.38782990000004,35.669814300000006],[129.36517700000002,35.6774979],[129.3442172,35.6725615],[129.32322080000003,35.65942939999999],[129.3017696,35.6485496],[129.28075389999998,35.6512993],[129.2600172,35.6547795],[129.25998479999998,35.67535710000001],[129.2599419,35.6972402],[129.23978879999999,35.70503280000001],[129.21767449999996,35.7158839],[129.19698499999998,35.7164065],[129.17587069999996,35.71557030000001],[129.15533140000002,35.720364700000005],[129.13450029999998,35.711880199999996],[129.11361769999996,35.70851760000001],[129.0932458,35.7018179],[129.07294900000002,35.684971399999995],[129.06828190000002,35.6639217],[129.07961159999996,35.643138500000006],[129.05939850000001,35.64850920000001],[129.03937419999997,35.63579330000001],[129.0187748,35.6324449],[128.99837280000003,35.6154424],[128.97717269999998,35.6109766],[128.95691660000003,35.62214060000001],[128.93631720000002,35.6346284],[128.9159496,35.63893240000001],[128.8950327,35.6314194],[128.8734634,35.62951490000001],[128.86290630000005,35.607955100000005],[128.8427618,35.589970300000004],[128.82130410000002,35.5944372],[128.8007048,35.58745749999999],[128.7866843,35.566734700000005],[128.7643984,35.569028200000005],[128.74179919999997,35.5741735],[128.71975349999994,35.580205],[128.6989954,35.5809659],[128.67805269999997,35.5940882],[128.65758209999998,35.59713820000001],[128.63494,35.5843653],[128.61402299999997,35.5830146],[128.59364680000002,35.5847527],[128.57309459999996,35.5972812],[128.5558899,35.617375100000004],[128.5357454,35.62834980000001],[128.5365179,35.6496948],[128.52784900000003,35.6713828],[128.53378849999999,35.692441],[128.528085,35.71351800000001],[128.54846980000002,35.7242495],[128.5688761,35.734383900000005],[128.58985309999997,35.73234590000001],[128.60990309999997,35.726096000000005],[128.63021930000002,35.7058691],[128.651162,35.712420300000005],[128.67173559999998,35.72055980000001],[128.69178559999997,35.732851100000005],[128.69470389999998,35.7540288],[128.68703920000002,35.7745255],[128.69556219999996,35.79518920000001],[128.71586109999996,35.8116522],[128.7142475,35.8320592],[128.73461509999996,35.85138609999999],[128.7567766,35.8645145],[128.7610081,35.88480699999999],[128.7571564,35.904889299999994],[128.74135539999997,35.9255475],[128.7427261,35.9469164],[128.74542549999998,35.967106300000005],[128.73169259999997,35.98749749999999],[128.7163289,36.008218500000005],[128.69557719999997,36.0164926],[128.67540269999998,36.01412],[128.65414030000002,36.00973390000001],[128.63376409999995,36.0082775],[128.6127098,36.000695300000004],[128.5930803,35.979944499999995],[128.57265259999997,35.9766106],[128.55025080000001,35.961609499999994],[128.5297201,35.9670107],[128.53458669999998,35.94456949999999],[128.5291965,35.9238596],[128.5091379,35.9085843],[128.48842700000006,35.8977908],[128.46819670000002,35.9003111],[128.47291740000003,35.9209577],[128.4602745,35.941234099999996],[128.4390743,35.9317134],[128.4176424,35.9182469],[128.3987596,35.89753],[128.3904941,35.87428669999999],[128.3960131,35.850236499999994],[128.4348944,35.846479599999995],[128.46854000000002,35.8368779],[128.4783247,35.813773399999995],[128.4556654,35.808135400000005],[128.43306619999998,35.810415],[128.4110935,35.799625500000005],[128.39478569999997,35.77302830000001],[128.39034820000003,35.74873840000001],[128.4119776,35.7364078],[128.43477149999998,35.7168418],[128.42347890000002,35.696546700000006],[128.4001072,35.697296],[128.3716972,35.70363880000001],[128.3511837,35.69903860000001],[128.35882260000002,35.67833420000001],[128.3815935,35.657854699999994],[128.40048480000002,35.6368257],[128.38596230000002,35.6136561],[128.3635948,35.62038930000001],[128.34742430000003,35.640773900000006],[128.32449040000003,35.6459076],[128.30434590000002,35.6539492],[128.282605,35.65239390000001],[128.261688,35.642999],[128.2412389,35.6534784],[128.22066099999998,35.64111570000001],[128.20014740000002,35.6448822],[128.1801231,35.6572758],[128.16006249999998,35.66810660000001],[128.1802456,35.675159400000005],[128.20136,35.69217010000001],[128.20160669999999,35.712383],[128.19551059999998,35.7338345],[128.184108,35.7550224],[128.16324690000002,35.76370430000001],[128.1558171,35.7841036],[128.13543230000002,35.785478700000006],[128.12226700000002,35.8056792],[128.1168382,35.82631570000001],[128.0962914,35.8319741],[128.0758219,35.838935000000006],[128.05569459999998,35.8333684],[128.0352239,35.8345862],[128.01371049999997,35.8309034],[127.99311760000002,35.842869699999994],[127.97214699999999,35.850740099999996],[127.95100900000001,35.860848],[127.93025300000002,35.8589507],[127.92987749999999,35.879395900000006],[127.908407,35.88974699999999],[127.8875769,35.89212330000001],[127.8874031,35.9127416],[127.89283189999999,35.932794200000004],[127.90686520000001,35.9532586],[127.89686590000001,35.973978200000005],[127.8793243,35.994056900000004],[127.87549409999998,36.0148109],[127.887146,36.03511510000001],[127.90716600000002,36.0471911],[127.92765800000001,36.052517200000004],[127.94795700000002,36.058865399999995],[127.9607887,36.079088999999996],[127.9628915,36.099186100000004],[127.9683933,36.119280599999996],[127.9884905,36.133230100000006],[127.99537849999999,36.1532959],[127.9834351,36.17335920000001],[127.97836249999999,36.193446900000005],[127.9985327,36.2068317],[128.0186171,36.20818220000001],[128.0390663,36.194814900000004],[128.05977289999998,36.19990580000001],[128.0404181,36.220491300000006],[128.0309553,36.241002],[128.034131,36.26109220000001],[128.01368179999997,36.2704693],[127.99341290000001,36.266890800000006],[127.97332,36.252873300000005],[127.9528794,36.257098],[127.93260190000001,36.27654390000001],[127.91242310000001,36.2822842],[127.8922615,36.292232100000014],[127.87214699999998,36.27693830000001],[127.85120440000001,36.274793300000006],[127.84563390000001,36.29536250000001],[127.8458056,36.3155597],[127.8651948,36.33573090000001],[127.88540789999999,36.35066409999999],[127.8820605,36.3710543],[127.8679843,36.3912319],[127.87545149999998,36.41126609999999],[127.87507389999999,36.4313849],[127.87863599999999,36.452282999999994],[127.8813686,36.47317030000001],[127.883906,36.49331880000001],[127.90422640000003,36.5098429],[127.89411980000001,36.530036100000004],[127.874044,36.539842900000004],[127.8697225,36.56010070000001],[127.84901690000001,36.57156139999999],[127.8286182,36.573798200000006],[127.8081615,36.580332500000004],[127.79766870000002,36.6008691],[127.8181103,36.6086774],[127.8381175,36.6092579],[127.8582448,36.613632800000005],[127.86103209999999,36.634298300000005],[127.8815027,36.6513087],[127.88909879999999,36.630096800000004],[127.909741,36.62565390000001],[127.92395460000002,36.604741499999996],[127.93164930000002,36.624879],[127.93665750000001,36.644987099999994],[127.93175660000001,36.665630400000005],[127.91166360000004,36.67852620000001],[127.8903433,36.692269800000005],[127.91089970000002,36.692854800000006],[127.93120730000001,36.69901080000001],[127.9509172,36.71917530000001],[127.97114540000001,36.730170400000006],[127.99140680000001,36.7177631],[128.0114804,36.72885480000001],[128.03223000000003,36.71813980000001],[128.05228430000003,36.70751280000001],[128.0725919,36.7148029],[128.05248600000004,36.73220830000001],[128.03289519999998,36.7523606],[128.04424630000003,36.7728805],[128.05451589999998,36.79306510000001],[128.0731283,36.8139022],[128.09321269999998,36.8022026],[128.11339579999998,36.8200726],[128.13358749999998,36.832250300000005],[128.1546589,36.824882099999996],[128.17590199999998,36.8214124],[128.1961151,36.817324199999995],[128.2161909,36.827688599999995],[128.21628529999998,36.848578200000006],[128.23757129999998,36.8499519],[128.2481199,36.870546999999995],[128.26954329999998,36.860050900000005],[128.29015119999997,36.8419156],[128.3102699,36.8274069],[128.3304831,36.816138900000006],[128.35116080000003,36.8103797],[128.3719607,36.8051011],[128.39226180000003,36.81460659999999],[128.41228830000003,36.81118789999999],[128.43305069999997,36.8278192],[128.4486719,36.848066499999995],[128.44241490000002,36.868408],[128.4266134,36.888957],[128.4428955,36.9091195],[128.4480797,36.929993700000004],[128.46614710000003,36.950059599999996],[128.48721850000004,36.9628853],[128.50828990000002,36.973891699999996],[128.52837430000002,36.9906212],[128.5499178,36.99593410000001],[128.5704743,37.014543499999995],[128.56887780000002,37.03462139999999],[128.5906788,37.04270580000001],[128.61076319999995,37.051337499999995],[128.631457,37.0417467],[128.6452693,37.06230030000001],[128.66633900000002,37.06030880000001],[128.68909019999998,37.0529746],[128.7115778,37.0421235],[128.73471349999997,37.04010590000001],[128.75830870000001,37.0462511],[128.7671986,37.0670037],[128.78804040000003,37.087647999999994],[128.8102234,37.077801699999995],[128.83181840000003,37.067585900000005],[128.85304650000003,37.050487999999994],[128.8765297,37.048253100000004],[128.8973952,37.04515670000001],[128.9101067,37.06617850000001],[128.92003730000005,37.088851399999996],[128.9400959,37.094301200000004],[128.96048930000003,37.077033],[128.98200710000003,37.0821824],[129.00255059999998,37.0795564],[129.02318,37.0768515],[129.04388669999997,37.0710307],[129.0666318,37.080638300000004],[129.08784490000002,37.096036700000006],[129.10920389999998,37.0935618],[129.12927319999997,37.083764099999996],[129.14963229999998,37.07530390000001],[129.17046549999998,37.0602883],[129.1906886,37.040901],[129.212157,37.04328339999999],[129.2328594,37.0466437],[129.2310161,37.069163200000006],[129.24551079999998,37.090566900000006],[129.2660372,37.102324900000006],[129.2870251,37.1158007],[129.30737330000002,37.12810840000001],[129.32864390000003,37.1408036],[129.3488332,37.146362700000005],[129.3692011,37.146933800000006],[129.39417780000002,37.154761699999995],[129.6243797,37.271039800000004],[129.61603359999998,37.219565300000006],[129.67862469999997,37.11786639999999],[129.6957103,37.06631510000001],[129.6839429,37.004898],[129.6868182,36.9069968],[129.74556929999997,36.7664894],[129.73338139999998,36.64529830000001],[129.70195019999997,36.605917700000006],[129.71371429999996,36.5597288],[129.7170769,36.5067655],[129.6981941,36.3891025],[129.65946399999999,36.3217792],[129.65779890000002,36.246572500000006],[129.7206784,36.22767290000001],[129.79913630000001,36.155917],[129.8327767,36.0947204],[129.84822620000003,36.0439296]]]],"type":"MultiPolygon"},"id":2304454,"type":"Feature","properties":{"boundary":"administrative","note":"Do not edit to change the status of these islands or revert edits doing so without first contacting the Data Working Group.","name:uk":"Північна провінція Кьонсан","name:id":"Gyeongsang Utara","ISO3166-2":"KR-47","name:ca":"Gyeongsangbuk-do","name:sv":"Nordgyeongsang","name:ko":"경상북도","name:sw":"Gyeongsangbuk-do","is_in:country_code":"KR","admin_level":"4","name:ms":"Gyeongsang Utara","name:it":"Nord Gyeongsang","name:en":"Gyeongsangbuk-do","wikipedia":"en:North Gyeongsang Province","name:et":"Põhja-Kyŏngsangi provints","name:es":"Gyeongsang del Norte","name:zh":"庆尚北道","name:vi":"Gyeongsang Bắc","name:th":"จังหวัดคย็องซังเหนือ","name:ja":"慶尚北道","is_in":"대한민국","name:fa":"جئونسانگبوک-دو","name:pl":"Gyeongsang Północny","is_in:continent":"Asia","name:ro":"Gyeongsangbuk-do","name:nl":"Gyeongsangbuk-do","name:fi":"Pohjois-Gyeongsang","name:ru":"Кёнсан-Пукто","name:pt":"Gyeongsang do Norte","name:de":"Gyeongsangbuk-do","name:no":"Nord-Gyeongsang","name:lt":"Šiaurės Kiongsango provincija","alt_name:en":"Gyeongsangbuk-do","name:bg":"Кьонсан-Пукто","name":"경상북도","name:fr":"Gyeongsang du Nord","short_name":"경북","is_in:country":"Republic of Korea"}},{"osm_type":"relation","name":"서울특별시","geometry":{"coordinates":[[[[127.17833429999997,37.546858300000004],[127.156426,37.53581530000001],[127.14077739999999,37.5154624],[127.1599665,37.4944565],[127.14358320000001,37.4740756],[127.12099289999999,37.4651094],[127.1003806,37.45749649999999],[127.07984779999998,37.44142339999999],[127.0592914,37.42963290000001],[127.0387135,37.43847590000001],[127.01853879999999,37.4561179],[126.9977508,37.46768959999999],[126.9777093,37.4507931],[126.95732450000001,37.439396],[126.937047,37.442190000000004],[126.91694120000001,37.4401626],[126.89687829999998,37.446628],[126.8812785,37.4699036],[126.8591954,37.48742489999999],[126.83898179999998,37.4758035],[126.8189602,37.48015],[126.81956320000002,37.50031190000001],[126.8255906,37.520563700000004],[126.81422020000002,37.540613],[126.79409290000001,37.5390949],[126.77760590000001,37.5596559],[126.79332310000001,37.5802712],[126.7988615,37.6011848],[126.8189406,37.594479],[126.8391304,37.580887999999995],[126.86088849999999,37.575568600000004],[126.8809627,37.59017720000001],[126.901701,37.605626300000004],[126.90852560000002,37.62575420000001],[126.92105690000001,37.6458734],[126.94180540000002,37.657592300000005],[126.96261930000001,37.6434998],[126.9829612,37.651204699999994],[126.9937973,37.671809499999995],[127.0082386,37.69211400000001],[127.02890729999999,37.69990130000001],[127.04912050000001,37.693007900000005],[127.0700202,37.694162500000004],[127.0917354,37.678608000000004],[127.09147360000001,37.657801299999996],[127.1114765,37.63872190000001],[127.1162358,37.61851580000001],[127.11538179999998,37.597811300000004],[127.1019879,37.5777812],[127.11325320000002,37.5573706],[127.1333197,37.5670649],[127.1561942,37.57283230000001],[127.1776519,37.5722541],[127.18503229999997,37.5511386]]]],"type":"MultiPolygon"},"id":2297418,"type":"Feature","properties":{"name:bs":"Seul","name:sk":"Soul","name:ko_rm":"Seoulteukbyeolsi","name:ka":"სეული","name:sl":"Seul","name:sr":"Сеул","ISO3166-2":"KR-11","name:kk":"Сеул","name:ca":"Seül","name:nah":"Seul","name:kn":"ಸೌಲ್","name:sv":"Seoul","name:ko":"서울","name:km":"សេអ៊ូល","name:roa-tara":"Seul","name:cdo":"Siū-ék","official_name:ko_rm":"Seoul-teukbyeolsi","name:ku":"Sêûl","name:ext":"Seúl","name:pnb":"سیول","name:cs":"Soul","name:ta":"சியோல்","name:bjn":"Soul","name:ky":"Сеул","name:ar":"سول","name:ckb":"سۆل","name:zh-classical":"首爾","name:ja":"ソウル","name:az":"Seul","name:csb":"Seul","name:ba":"Сеул","name:ro":"Seul","population":"10464051","name:be":"Сеул","name:ru":"Сеул","name:bg":"Сеул","name:bh":"सियोल","name:bn":"সিওল","name:be-tarask":"Сэул","name:bo":"སེ་ཨུལ།","name:wuu":"首尔","name:zh-yue":"首爾","name:uk":"Сеул","name:ml":"സോൾ","name:ur":"سیول","name:mk":"Сеул","name:mn":"Сөүл","name:arz":"سول","name:el":"Σεούλ","name:mr":"सोल","name:uz":"Seul","name:tpi":"Sol","name:my":"ဆိုးလ်မြို့","name:en":"Seoul","name:eo":"Seulo","wikipedia":"en:Seoul","name:et":"Sŏul","name:eu":"Seul","name:es":"Seúl","name:cv":"Сеул","name:tg":"Сеул","name:th":"โซล","name:jbo":".sol.","name:mhr":"Сеул","name:tk":"Seul","name:la":"Seulum","name:zh-min-nan":"Seoul Te̍k-pia̍t-chhī","is_in:continent":"Asia","name:tr":"Seul","name:de":"Seoul","official_name:ko":"서울특별시","name:lt":"Seulas","name:lv":"Seula","is_in:country":"Republic of Korea","name:oc":"Seol","source:population":"Wikipedia","official_name:en":"Seoul Special City","name:os":"Сеул","is_in:country_code":"KR","ref":"01","name:gl":"Seúl","admin_level":"4","name:vi":"Seoul","is_in":"대한민국","name:fa":"سئول","name:vo":"Söul","name:nl":"Seoel","name:fi":"Soul","name:diq":"Seul","name":"서울특별시","name:fr":"Séoul","name:ast":"Seúl","name:rue":"Соул","alt_name:vi":"Xơ-un","name:fiu-vro":"Sŏul","boundary":"administrative","name:bat-smg":"Seuls","official_name":"서울특별시","name:hy":"Սեուլ","name:sah":"Сеул","name:crh":"Seul","name:gan":"首爾","name:qu":"Siul","name:af":"Seoel","name:it":"Seul","name:am":"ሶል","name:is":"Seúl","name:an":"Seúl","name:zh":"首爾","name:szl":"Seul","name:pl":"Seul","name:dsb":"Soul","name:he":"סיאול","name:pt":"Seul","name:hi":"सियोल","name:gag":"Seul","old_name:vi":"Thủ Nhĩ","name:hr":"Seul","name:yi":"סעאל","name:hu":"Szöul"}},{"osm_type":"relation","name":"전라남도","geometry":{"coordinates":[[[[127.92833699999998,34.08176949999999],[127.88833129999998,34.057645799999996],[127.7280597,33.8482579],[127.677539,33.810340399999994],[127.6007212,33.79457870000001],[127.33378709999998,33.773655000000005],[127.0856076,33.72579710000001],[126.95923490000001,33.7741815],[126.89274009999998,33.800577],[126.79764070000002,33.845564399999994],[126.700785,33.902230900000006],[126.6543292,33.9279035],[126.58924809999999,33.958379],[126.4954641,34.020681599999996],[126.3669852,34.0992545],[126.3359137,34.1131975],[126.3124562,34.122904000000005],[126.28459550000001,34.1274442],[126.2517309,34.124353500000005],[126.21750170000001,34.108763100000004],[126.17280099999998,34.080595100000004],[126.08579449999999,34.0076688],[125.79066670000002,33.72894180000001],[125.40328300000002,33.780734800000005],[125.1212807,33.8184187],[125.01223279999999,33.838953200000006],[124.9210978,33.888920999999996],[124.8666726,33.961536300000006],[124.83768760000001,34.0044027],[124.81925970000002,34.075064],[124.8195601,34.116196],[124.8284436,34.1779809],[124.9232779,34.695586000000006],[124.9323846,34.7522828],[124.9526921,34.79808030000001],[124.99198540000002,34.85224159999999],[125.5871651,35.299020500000005],[125.7559386,35.4252665],[125.79916220000001,35.5506178],[125.9582968,35.50489149999999],[126.42877719999998,35.4300413],[126.44946100000001,35.42815420000001],[126.470275,35.425531500000005],[126.49134640000001,35.41196179999999],[126.48645400000001,35.391463099999996],[126.49606920000002,35.3707142],[126.49412090000003,35.350359],[126.51446270000001,35.3567293],[126.51856120000001,35.334868699999994],[126.5274167,35.312604699999994],[126.54756550000002,35.312937399999996],[126.5684867,35.3109938],[126.59091000000001,35.31066109999999],[126.5913413,35.33109459999999],[126.6124792,35.3292556],[126.63308079999999,35.32039090000001],[126.6550534,35.329844699999995],[126.66689809999998,35.35182909999999],[126.68867329999999,35.3479683],[126.70981340000002,35.364359],[126.73124530000001,35.378412600000004],[126.7228167,35.3999885],[126.74492670000002,35.408618000000004],[126.751437,35.4296054],[126.74460060000003,35.45084609999999],[126.76560330000001,35.465856200000005],[126.78706100000001,35.46872230000001],[126.8078063,35.468149100000005],[126.8295043,35.4832958],[126.8388942,35.462839800000005],[126.86018879999999,35.46194139999999],[126.880462,35.4552334],[126.89766890000001,35.4350079],[126.91675120000001,35.4149138],[126.9338315,35.394660699999996],[126.95528920000001,35.3943808],[126.9764035,35.40606459999999],[126.9724553,35.427328900000006],[126.9939988,35.4393576],[127.0149415,35.457676899999996],[127.03502590000001,35.464877599999994],[127.036485,35.4444622],[127.0501063,35.424027699999996],[127.04744560000002,35.4030424],[127.0265286,35.3996982],[127.03791840000001,35.379252300000005],[127.05857779999998,35.38186959999999],[127.0683024,35.3609852],[127.07073139999999,35.34027749999999],[127.0496772,35.3349457],[127.0611785,35.314570999999994],[127.08235719999999,35.3083025],[127.1035831,35.2999845],[127.1240409,35.3033713],[127.14557579999999,35.3093251],[127.1644586,35.329424499999995],[127.18488629999999,35.3262734],[127.20497060000001,35.3155585],[127.22728660000001,35.334606099999995],[127.24916920000003,35.31962049999999],[127.270262,35.31261],[127.29189140000001,35.3123298],[127.31491970000002,35.305612800000006],[127.3378022,35.3154395],[127.3578093,35.3210107],[127.37876059999999,35.30429939999999],[127.3997033,35.3169137],[127.41559910000001,35.3371618],[127.43034920000001,35.3585738],[127.45070390000001,35.36128969999999],[127.47179249999999,35.3666443],[127.49365790000002,35.3595363],[127.51417570000001,35.35162259999999],[127.53430300000001,35.3352713],[127.5546577,35.32391520000001],[127.57474809999998,35.3105543],[127.5856786,35.29033370000001],[127.59558779999999,35.27011950000001],[127.61505199999999,35.249695100000004],[127.6190002,35.22933750000001],[127.6170283,35.20897480000001],[127.6210516,35.1882247],[127.64152220000001,35.1686515],[127.66160660000001,35.156407099999996],[127.681691,35.1412482],[127.69473719999999,35.12057550000001],[127.70469360000003,35.0976856],[127.7255698,35.0794235],[127.7473085,35.05887739999999],[127.76966740000002,35.040573200000004],[127.7863615,35.014954499999995],[127.78065590000001,34.994930200000006],[127.76410770000001,34.9749097],[127.77269079999999,34.95180299999999],[127.77500819999999,34.93168049999999],[127.8000107,34.9233838],[127.799985,34.8996573],[127.78769400000002,34.8696497],[127.7944918,34.846421799999995],[127.79571920000001,34.817190999999994],[127.798955,34.7868079],[127.81055930000001,34.735340400000005],[127.85295109999998,34.68633930000001],[127.8985186,34.6101095],[128.17983089999998,34.157184799999996],[127.92833699999998,34.08176949999999]],[[127.0201492,35.172548000000006],[126.99969570000002,35.1888234],[126.97860709999999,35.1869996],[126.9580507,35.19249550000001],[126.9520855,35.2130201],[126.9430475,35.23433530000001],[126.9224739,35.252771200000005],[126.9016771,35.255785],[126.8806743,35.2515796],[126.855859,35.23849210000001],[126.83500209999998,35.22881730000001],[126.81475470000001,35.22395850000001],[126.79450030000001,35.219962200000005],[126.7743344,35.233423900000005],[126.75416420000002,35.236929200000006],[126.75765320000002,35.258168000000005],[126.7373113,35.2521404],[126.7225484,35.230479300000006],[126.70669980000001,35.21035530000001],[126.6864996,35.214562900000004],[126.67353909999999,35.19373350000001],[126.65211149999999,35.19247090000001],[126.67225169999999,35.1737407],[126.65382809999998,35.1526202],[126.6538839,35.13261730000001],[126.6669602,35.11211800000001],[126.68704460000001,35.1119073],[126.70730060000001,35.1112052],[126.72850079999999,35.107694499999994],[126.74949930000001,35.1006726],[126.76626630000001,35.080376],[126.75825400000001,35.0595298],[126.77879759999999,35.0528376],[126.80245679999999,35.05628039999999],[126.82273859999998,35.0602851],[126.84385300000001,35.0653434],[126.86539649999999,35.0755294],[126.88548079999998,35.0817105],[126.9058227,35.0820617],[126.92645390000001,35.082613900000005],[126.94736480000002,35.072719600000006],[126.96865620000001,35.09017520000001],[126.9889798,35.1098887],[127.01280209999999,35.126945400000004],[127.01070779999999,35.14897090000001],[127.02329920000001,35.1697416]]]],"type":"MultiPolygon"},"id":2398104,"type":"Feature","properties":{"boundary":"administrative","name:ko_rm":"Jeollanam-do","name:uk":"Південна провінція Чолла","name:id":"Jeolla Selatan","ISO3166-2":"KR-46","name:ca":"Jeollanam-do","name:sv":"Sydjeolla","name:ko":"전라남도","name:sw":"Jeollanam-do","is_in:country_code":"KR","name:mn":"Өмнөд Чолла","admin_level":"4","name:ms":"Jeolla Selatan","name:it":"Sud Jeolla","name:en":"Jeollanam-do","wikipedia":"en:South Jeolla Province","name:et":"Lõuna-Chŏlla provints","name:es":"Jeolla del Sur","name:zh":"全羅南道","name:vi":"Jeolla Nam","name:th":"จังหวัดจ็อลลาใต้","name:ja":"全羅南道","is_in":"대한민국","name:fa":"جئولانام-دو","name:pl":"Jeolla Południowa","is_in:continent":"Asia","name:nl":"Jeollanam-do","name:fi":"Etelä-Jeolla","name:ru":"Чолла-Намдо","name:pt":"Jeolla do Sul","name:de":"Jeollanam-do","name:no":"Sør-Jeolla","name:lt":"Pietų Džolos provincija","name:bg":"Чъла-Намдо","name":"전라남도","name:fr":"Jeolla du Sud","is_in:country":"Republic of Korea"}},{"osm_type":"relation","name":"인천","geometry":{"coordinates":[[[[126.78168970000002,37.5839868],[126.76131240000001,37.5850572],[126.73923960000002,37.5932612],[126.7190977,37.5979886],[126.69864849999999,37.6174438],[126.67820689999999,37.629968500000004],[126.6580946,37.638288200000005],[126.63739009999999,37.62654500000001],[126.6276891,37.60610530000001],[126.60674639999999,37.601277399999994],[126.5831497,37.589691699999996],[126.5600426,37.582290300000004],[126.54001950000001,37.6023994],[126.54246560000001,37.631226],[126.5273122,37.6558286],[126.5225916,37.676958600000006],[126.5285997,37.70242890000001],[126.5185189,37.72374920000001],[126.52817049999999,37.74913560000001],[126.5202784,37.7743775],[126.50174799999999,37.79906080000001],[126.4684887,37.81189809999999],[126.44217300000001,37.837023699999996],[126.4135758,37.844703499999994],[126.2936411,37.8254176],[126.264802,37.8278582],[126.2229166,37.8297564],[126.1935625,37.8086022],[126.18978599999998,37.7816082],[126.187726,37.747953700000004],[126.1614619,37.717950300000005],[126.1381159,37.7096666],[126.09468560000002,37.712246900000004],[126.01499400000002,37.717013800000004],[125.9350415,37.72319330000001],[125.83638769999999,37.7312446],[125.77735340000001,37.72336980000001],[125.7232886,37.6973634],[125.66257199999998,37.6910472],[125.611754,37.680992],[125.5430786,37.6674395],[125.47206,37.653422],[125.42564360000001,37.644259],[125.376215,37.629819700000006],[125.3430489,37.627951200000005],[125.26756200000001,37.631254],[125.19581609999999,37.6366917],[125.12008769999998,37.651025],[125.0575343,37.669765000000005],[125.02075889999999,37.69283690000001],[124.9913073,37.711732600000005],[124.9467784,37.7466659],[124.90725330000002,37.77922890000001],[124.87171079999999,37.815934],[124.85769470000001,37.85106209999999],[124.8567334,37.9302052],[124.8394557,37.976003399999996],[124.81144090000001,37.998602500000004],[124.77930549999999,38.0161201],[124.70987709999999,38.042818700000005],[124.63938429999999,38.055471499999996],[124.55664360000002,38.06531790000001],[124.49572950000001,38.068129000000006],[124.38426120000001,38.068114400000006],[124.3671981,38.026742600000006],[124.35484699999999,37.9772956],[124.3645802,37.910962399999995],[124.4099417,37.839716100000004],[124.41531470000001,37.7832719],[124.44777590000001,37.72506020000001],[124.47785960000002,37.6832021],[124.5241738,37.6340069],[124.6018334,37.576052100000005],[124.68234259999998,37.5464555],[125.059783,37.4596527],[125.71759800000001,37.393468399999996],[125.79803,37.400519],[125.8453141,37.4162135],[125.8675013,37.4103779],[125.7521706,37.30306759999999],[125.71267990000001,37.182058500000004],[125.6345568,37.1711711],[125.5607854,37.1164576],[125.5205394,37.06713570000001],[125.4164711,36.858814599999995],[125.818183,36.858554],[126.05048409999999,36.931231399999994],[126.17923629999999,37.0128984],[126.2779479,37.056194],[126.34878869999999,37.13815680000001],[126.3690447,37.152387399999995],[126.4228177,37.15210690000001],[126.5132403,37.2058649],[126.5558552,37.243720800000006],[126.5396762,37.264359600000006],[126.5062451,37.29016890000001],[126.49886370000002,37.3206178],[126.5194201,37.330862599999996],[126.5636522,37.3322175],[126.6062217,37.3322491],[126.66207069999999,37.332908700000004],[126.7248623,37.3826569],[126.74918890000001,37.4065046],[126.76922280000001,37.427468499999996],[126.770286,37.44772639999999],[126.7795086,37.46850500000001],[126.75918809999999,37.476866599999994],[126.74235940000001,37.4973025],[126.760157,37.5173224],[126.76131670000001,37.540534],[126.77769930000001,37.560652600000004],[126.79369050000001,37.5815856]]]],"type":"MultiPolygon"},"id":2297419,"type":"Feature","properties":{"boundary":"administrative","official_name":"인천광역시","name:ko_rm":"Incheon-gwangyeoksi","name:uk":"Інчхон","official_name:en":"Incheon Metropolitan City","ISO3166-2":"KR-28","name:ko":"인천","is_in:country_code":"KR","name:el":"Ίντσον","admin_level":"4","name:en":"Incheon","wikipedia":"en:Incheon","name:zh":"仁川广域市","name:ja":"仁川広域市","is_in":"대한민국","short_name:ko":"인천","short_name:en":"Incheon","is_in:continent":"Asia","name:da":"Incheon","name:he":"אינצ'ון","population":"2870545","name:ru":"Инчхон","name:de":"Incheon","official_name:ko":"인천광역시","name:lt":"Inčonas","name":"인천","name:fr":"Inchon","short_name":"인천","is_in:country":"Republic of Korea"}},{"osm_type":"relation","name":"경기도","geometry":{"coordinates":[[[[127.84143920000001,37.558102100000006],[127.81950090000001,37.5607965],[127.80162240000001,37.58149099999999],[127.77989,37.5790762],[127.75712770000001,37.5871636],[127.7327604,37.5879117],[127.7105861,37.5871092],[127.6904974,37.603390100000006],[127.66954829999999,37.616546],[127.6481458,37.627693900000004],[127.6277466,37.6424669],[127.6069112,37.650431],[127.58523029999999,37.6418781],[127.56481550000001,37.63293010000001],[127.54179140000001,37.639937700000004],[127.5526447,37.66159880000001],[127.54996240000001,37.6836185],[127.5581207,37.70542830000001],[127.55115550000001,37.72737230000001],[127.5309553,37.725176200000014],[127.508811,37.718424399999996],[127.51705930000001,37.739838600000006],[127.54459380000002,37.76025590000001],[127.52930309999999,37.78301810000001],[127.53016990000002,37.8045119],[127.5244107,37.825040200000004],[127.54366250000001,37.8466133],[127.56431260000001,37.8580385],[127.584548,37.875802300000004],[127.6068854,37.8788883],[127.6150608,37.9019999],[127.6121533,37.922650000000004],[127.60938089999999,37.9434754],[127.58833949999999,37.9604596],[127.56696090000001,37.96315830000001],[127.54660620000001,37.97778699999999],[127.5406023,37.998368400000004],[127.5204192,38.001388399999996],[127.49869550000001,38.0011888],[127.477461,38.005814900000004],[127.4548188,38.0234034],[127.45226970000002,38.0438199],[127.4467078,38.06511600000001],[127.44491400000003,38.0875409],[127.43429400000002,38.1100255],[127.4137027,38.1010251],[127.3931553,38.1178928],[127.369612,38.1122946],[127.3489182,38.1048319],[127.32536629999998,38.095207],[127.31050040000001,38.115265900000004],[127.2878153,38.1152254],[127.27546209999998,38.135283900000005],[127.2851127,38.156079999999996],[127.29329240000001,38.1771174],[127.27283789999998,38.181397499999996],[127.25246809999999,38.16212790000001],[127.23105760000001,38.14819920000001],[127.21105690000002,38.1467817],[127.18908429999999,38.1654295],[127.18830039999999,38.18850810000001],[127.1663642,38.199200000000005],[127.15990109999998,38.2192404],[127.15576179999998,38.239347],[127.1352489,38.233522400000005],[127.11306640000001,38.23858250000001],[127.1078605,38.2586706],[127.09492960000003,38.278680900000005],[127.06864940000001,38.2638411],[127.0421478,38.258813],[127.019722,38.237222],[127.0000422,38.21613000000001],[126.976111,38.199167],[126.966532,38.177465999999995],[126.953186,38.1557265],[126.96426650000002,38.135023800000006],[126.94360430000002,38.13353380000001],[126.92261460000002,38.1192663],[126.8979511,38.100160100000004],[126.87350809999998,38.094056300000005],[126.8673579,38.07388649999999],[126.8590579,38.053633399999995],[126.83722200000001,38.02934230000001],[126.8238949,38.0077435],[126.80277799999998,37.997120300000006],[126.78065370000002,37.9795048],[126.7581467,37.9719931],[126.7363497,37.9647117],[126.71540590000001,37.9546158],[126.6909845,37.957736499999996],[126.6701416,37.9409466],[126.67856799999998,37.9202035],[126.68330479999999,37.8999949],[126.68447259999999,37.8662727],[126.6896954,37.8435904],[126.66936679999999,37.829309300000006],[126.6544426,37.8071626],[126.65778209999998,37.785741800000004],[126.63760090000001,37.783765700000004],[126.61612600000001,37.7775145],[126.59127370000002,37.76312220000001],[126.57097289999999,37.76509310000001],[126.54973340000001,37.78131080000001],[126.5199827,37.7920214],[126.5151715,37.76616800000001],[126.5278272,37.7440454],[126.5185189,37.72374920000001],[126.5285997,37.70242890000001],[126.5225916,37.676958600000006],[126.5273122,37.6558286],[126.54246560000001,37.631226],[126.54001950000001,37.6023994],[126.5625845,37.58233280000001],[126.59120080000001,37.59303680000001],[126.61121600000001,37.60545930000001],[126.6328647,37.61819930000001],[126.65155,37.638431000000004],[126.6726193,37.633945000000004],[126.69283349999999,37.62060520000001],[126.7139908,37.6039277],[126.73501460000001,37.5906842],[126.75566160000001,37.58286449999999],[126.7777038,37.5846713],[126.7988615,37.6011848],[126.8189406,37.594479],[126.8391304,37.580887999999995],[126.86088849999999,37.575568600000004],[126.8809627,37.59017720000001],[126.901701,37.605626300000004],[126.90852560000002,37.62575420000001],[126.92105690000001,37.6458734],[126.94180540000002,37.657592300000005],[126.96261930000001,37.6434998],[126.9829612,37.651204699999994],[126.9937973,37.671809499999995],[127.0082386,37.69211400000001],[127.02890729999999,37.69990130000001],[127.04912050000001,37.693007900000005],[127.0700202,37.694162500000004],[127.0917354,37.678608000000004],[127.09147360000001,37.657801299999996],[127.1114765,37.63872190000001],[127.1162358,37.61851580000001],[127.11538179999998,37.597811300000004],[127.1019879,37.5777812],[127.11325320000002,37.5573706],[127.1333197,37.5670649],[127.1561942,37.57283230000001],[127.17910669999999,37.5668967],[127.17833429999997,37.546858300000004],[127.156426,37.53581530000001],[127.14077739999999,37.5154624],[127.1599665,37.4944565],[127.14358320000001,37.4740756],[127.12099289999999,37.4651094],[127.1003806,37.45749649999999],[127.07984779999998,37.44142339999999],[127.0592914,37.42963290000001],[127.0387135,37.43847590000001],[127.01853879999999,37.4561179],[126.9977508,37.46768959999999],[126.9777093,37.4507931],[126.95732450000001,37.439396],[126.937047,37.442190000000004],[126.91694120000001,37.4401626],[126.89687829999998,37.446628],[126.8812785,37.4699036],[126.86389779999999,37.49095870000001],[126.8431875,37.474807299999995],[126.8229106,37.489672399999996],[126.82434819999999,37.50970830000001],[126.8254619,37.5299915],[126.80539309999999,37.5428231],[126.7845872,37.5460909],[126.76209779999999,37.54088699999999],[126.76042520000001,37.52061870000001],[126.74323150000001,37.4993806],[126.75817209999998,37.47778699999999],[126.77877899999999,37.463804399999994],[126.7706819,37.4433482],[126.7596742,37.4232936],[126.7457041,37.4006768],[126.72275189999999,37.38087739999999],[126.66207069999999,37.332908700000004],[126.6062217,37.3322491],[126.5636522,37.3322175],[126.5194201,37.330862599999996],[126.49886370000002,37.3206178],[126.5062451,37.29016890000001],[126.5499758,37.2562988],[126.5381312,37.2282841],[126.5132403,37.2058649],[126.4228177,37.15210690000001],[126.3690447,37.152387399999995],[126.34878869999999,37.13815680000001],[126.2779479,37.056194],[126.35433859999999,37.07073390000001],[126.42137960000001,37.0834919],[126.4657369,37.062707700000004],[126.48679109999999,37.0735696],[126.50652360000002,37.0960486],[126.5270543,37.090462],[126.5438085,37.0452817],[126.565162,37.04908],[126.58783960000001,37.0501318],[126.61476470000001,37.0694606],[126.71695960000002,37.0210034],[126.7607267,37.002389300000004],[126.7903158,36.9873952],[126.82873409999998,36.9687047],[126.82490849999999,36.9455941],[126.836984,36.9077142],[126.85792070000001,36.8975994],[126.88265709999999,36.89979580000001],[126.9095723,36.9037624],[126.94011430000002,36.9169279],[126.99393330000001,36.934982],[127.0153535,36.9351964],[127.03625720000001,36.9314207],[127.0565865,36.9368996],[127.07719990000001,36.94122439999999],[127.0978764,36.960536000000005],[127.1180037,36.9707902],[127.1395643,36.9693861],[127.16097909999999,36.9644571],[127.1819089,36.9561431],[127.20454460000002,36.949843099999995],[127.2179878,36.92951820000001],[127.2382364,36.920255000000004],[127.2586779,36.915844199999995],[127.2791602,36.9006098],[127.29982310000001,36.908247499999995],[127.2956818,36.929087599999995],[127.3165515,36.934463099999995],[127.3368807,36.9412112],[127.3580293,36.947645699999995],[127.37900209999998,36.957762699999996],[127.39125870000001,36.978092100000005],[127.39531849999999,36.99821390000001],[127.41621690000002,37.0004727],[127.43724960000003,37.0086054],[127.45750140000001,37.0204515],[127.4571881,37.04231600000001],[127.47781320000001,37.0531842],[127.49932240000001,37.04833430000001],[127.52157829999999,37.0560098],[127.54428910000001,37.048598000000005],[127.56712860000002,37.0534068],[127.5793552,37.0753611],[127.5997958,37.084843199999995],[127.620363,37.0904884],[127.63465590000001,37.110524],[127.636409,37.13259000000001],[127.63506360000001,37.1532096],[127.65533249999997,37.144069599999995],[127.6776657,37.13575990000001],[127.69993879999998,37.1524537],[127.71066760000002,37.174396300000005],[127.73107809999999,37.19227820000001],[127.74669070000002,37.212507200000005],[127.7464762,37.234083999999996],[127.75701620000001,37.257130100000005],[127.7536087,37.279937000000004],[127.75978849999998,37.3008321],[127.7648611,37.3210116],[127.7596426,37.344638499999995],[127.77379609999998,37.3694448],[127.7823276,37.3900491],[127.79212090000001,37.413906399999995],[127.802165,37.4368301],[127.79765170000002,37.4586377],[127.78325560000002,37.481005499999995],[127.7634577,37.502470300000006],[127.7843962,37.512242],[127.80576799999999,37.5341887],[127.82833289999998,37.536074],[127.8486403,37.5530796]]]],"type":"MultiPolygon"},"id":2306392,"type":"Feature","properties":{"boundary":"administrative","name:ko_rm":"Gyeonggi","name:uk":"Провінція Кьонгі","name:id":"Gyeonggi","ISO3166-2":"KR-41","name:ca":"Gyeonggi-do","name:sv":"Gyeonggi","name:ko":"경기도","name:sw":"Gyeonggi-do","is_in:country_code":"KR","ref":"08","name:mn":"Кёнги аймаг","name:su":"Gyeonggi-do","name:el":"Γκιόνγκι-ντο","admin_level":"4","name:ms":"Gyeonggi","name:it":"Gyeonggi","name:en":"Gyeonggi-do","wikipedia":"ko:경기도","name:et":"Kyŏnggi provints","name:cs":"Gjŏnggi","name:es":"Gyeonggi","name:zh":"京畿道","name:vi":"Gyeonggi","name:ja":"京畿道","is_in":"대한민국","name:fa":"گیونگی-دو","name:pl":"Gyeonggi","is_in:continent":"Asia","name:ro":"Gyeonggi-do","name:nl":"Gyeonggi-do","name:fi":"Gyeonggi","name:ru":"Кёнгидо","name:pt":"Gyeonggi","name:de":"Gyeonggi-do","name:no":"Gyeonggi","name:lt":"Kiongi provincija","name:bg":"Кьонги-до","name":"경기도","name:fr":"Gyeonggi","short_name":"경기","is_in:country":"Republic of Korea"}},{"osm_type":"relation","name":"강원도","geometry":{"coordinates":[[[[129.5957004,37.3255615],[129.51875309999997,37.4059544],[129.50133810000003,37.466391800000004],[129.4576932,37.5052536],[129.43123160000002,37.524888],[129.38027730000005,37.587338100000004],[129.37341080000002,37.617262499999995],[129.3162356,37.665091800000006],[129.31537730000002,37.71331590000001],[129.2867356,37.756208900000004],[129.18664850000002,37.862265300000004],[129.0879346,37.97178939999999],[129.03039040000002,38.0429691],[128.9794789,38.1058868],[128.89887530000001,38.19045580000001],[128.8595719,38.2508317],[128.8138085,38.3210682],[128.7674514,38.40075290000001],[128.702735,38.5078926],[128.6559809,38.61772],[128.5279022,38.62033000000001],[128.3927619,38.6230837],[128.356173,38.6138951],[128.33228800000003,38.6011717],[128.30981509999998,38.5806823],[128.307778,38.558056],[128.3125,38.537222],[128.3124816,38.5122536],[128.30183110000002,38.488505100000005],[128.29567809999998,38.4642398],[128.2844986,38.443262],[128.268611,38.42],[128.24777799999998,38.399722000000004],[128.225,38.381666999999986],[128.200833,38.365556000000005],[128.1777914,38.3533709],[128.15555799999998,38.342635300000005],[128.1353953,38.3327262],[128.11397199999996,38.3375197],[128.0886915,38.318910300000006],[128.06734110000002,38.3084145],[128.04690109999999,38.3076223],[128.02314790000003,38.316189599999994],[128.0020562,38.31447409999999],[127.978869,38.3207436],[127.95431070000001,38.3130354],[127.933456,38.3207764],[127.90011890000001,38.325034200000005],[127.87899429999999,38.3166922],[127.84741340000002,38.31454779999999],[127.81569360000002,38.3107537],[127.79512430000001,38.326501300000004],[127.78300879999999,38.3488584],[127.7619786,38.337360499999996],[127.7328574,38.337005399999995],[127.7104491,38.3353947],[127.6889606,38.3241997],[127.6604998,38.3245686],[127.63818269999999,38.32275390000001],[127.61625450000001,38.3336058],[127.5827655,38.3334931],[127.56124560000002,38.32853510000001],[127.5391078,38.3183278],[127.5181415,38.3059537],[127.49694400000001,38.302778],[127.4764577,38.3150762],[127.450833,38.3125],[127.425556,38.323333000000005],[127.40101570000002,38.3320115],[127.37988529999998,38.334477299999996],[127.34495320000002,38.32693810000001],[127.3244172,38.3200673],[127.3039369,38.31492479999999],[127.28261560000001,38.32257310000001],[127.25076809999999,38.3280668],[127.22341279999999,38.32823510000001],[127.1682816,38.308841799999996],[127.1423392,38.3128154],[127.12116420000001,38.29942630000001],[127.1044745,38.278741800000006],[127.1092338,38.2570531],[127.12053699999998,38.23471120000001],[127.14137079999999,38.237225800000004],[127.1630563,38.2319918],[127.17270699999997,38.211142800000005],[127.1752992,38.1910919],[127.18668960000001,38.169944],[127.2060015,38.1497246],[127.2275407,38.1477284],[127.24794480000001,38.160493],[127.26652500000002,38.1806031],[127.2874087,38.17912810000001],[127.2843746,38.158877499999996],[127.2769685,38.13877070000001],[127.2896521,38.1171364],[127.31050040000001,38.115265900000004],[127.32536629999998,38.095207],[127.3489182,38.1048319],[127.37250449999999,38.1135236],[127.3931553,38.1178928],[127.4157717,38.104548300000005],[127.44055530000001,38.107600999999995],[127.44491400000003,38.0875409],[127.4467078,38.06511600000001],[127.45226970000002,38.0438199],[127.4548188,38.0234034],[127.477461,38.005814900000004],[127.49869550000001,38.0011888],[127.5204192,38.001388399999996],[127.54420290000002,37.987014699999996],[127.55250699999999,37.966359000000004],[127.573145,37.9641395],[127.59344,37.957009899999996],[127.6135223,37.9377911],[127.61616590000001,37.9152391],[127.6104774,37.894183999999996],[127.59042350000001,37.8755443],[127.5702872,37.8679565],[127.54978229999999,37.8463252],[127.52496000000001,37.830870399999995],[127.5355258,37.8090452],[127.52271549999999,37.78871260000001],[127.54204460000001,37.76870010000001],[127.5295005,37.7460964],[127.518939,37.721825800000005],[127.54134940000002,37.71963290000001],[127.5623457,37.72119270000001],[127.5558634,37.7010889],[127.5505504,37.6777649],[127.5467138,37.657450499999996],[127.54685970000001,37.63705590000001],[127.5668797,37.63296570000001],[127.59039729999999,37.64312530000001],[127.6114838,37.64682749999999],[127.6316379,37.639317500000004],[127.65171099999999,37.62275600000001],[127.67256729999998,37.6141651],[127.69285769999999,37.60073800000001],[127.71463300000002,37.5876159],[127.73652840000001,37.5878301],[127.7593937,37.586496999999994],[127.77989,37.5790762],[127.80161380000001,37.579702000000005],[127.824316,37.5610687],[127.84668350000001,37.5439755],[127.82568069999999,37.5370336],[127.8044462,37.52939690000001],[127.78146070000001,37.512718500000005],[127.7599302,37.491734],[127.78197370000001,37.4837284],[127.7964974,37.462757700000004],[127.79978829999999,37.43911790000001],[127.7934427,37.418637499999996],[127.7825165,37.39728409999999],[127.77800179999998,37.3754336],[127.75973699999999,37.35458649999999],[127.76257799999999,37.3336313],[127.76735020000001,37.31099759999999],[127.75203799999998,37.290207800000005],[127.7573509,37.268893000000006],[127.74882790000001,37.2459666],[127.74891370000002,37.22364830000001],[127.74866910000001,37.2010124],[127.75786160000001,37.1682444],[127.7805724,37.1489236],[127.80270069999999,37.1441376],[127.8234074,37.1503924],[127.845983,37.1527201],[127.866857,37.16237550000001],[127.887907,37.1596137],[127.90862010000001,37.167083],[127.93052410000001,37.1716347],[127.93362250000001,37.1928094],[127.9287919,37.2141944],[127.93555370000001,37.23870810000001],[127.9556467,37.24803130000001],[127.9788253,37.258490900000005],[128.0000743,37.2538019],[128.01967639999998,37.23285520000001],[128.0343191,37.2109945],[128.0473928,37.188824],[128.06832690000005,37.193931600000006],[128.0923852,37.19927810000001],[128.114006,37.21213010000001],[128.12911219999998,37.23291420000001],[128.15086169999998,37.21805630000001],[128.17243950000002,37.21836390000001],[128.19016349999998,37.241982],[128.21032519999997,37.2456716],[128.23193730000003,37.226360400000004],[128.25363529999998,37.2264971],[128.27371969999996,37.209368500000004],[128.2967309,37.215636700000005],[128.3188151,37.22361980000001],[128.3292607,37.20273060000001],[128.30894460000002,37.18552820000001],[128.288371,37.170756700000005],[128.2682609,37.15488779999999],[128.28970999999999,37.139330400000006],[128.3109445,37.1445986],[128.33142370000002,37.1500513],[128.35427180000002,37.1552094],[128.37461369999997,37.1527261],[128.39646620000002,37.149599800000004],[128.39559930000001,37.12825890000001],[128.417014,37.12053260000001],[128.43946730000002,37.1098828],[128.4607576,37.1101943],[128.4816102,37.1133873],[128.5017261,37.122049000000004],[128.51875489999998,37.101919],[128.53884780000004,37.0894659],[128.56073469999998,37.0895891],[128.58189190000002,37.080893399999994],[128.6023625,37.078216000000005],[128.6232709,37.0879939],[128.6453294,37.0692655],[128.66633900000002,37.06030880000001],[128.68909019999998,37.0529746],[128.7115778,37.0421235],[128.73471349999997,37.04010590000001],[128.75830870000001,37.0462511],[128.7671986,37.0670037],[128.78804040000003,37.087647999999994],[128.8102234,37.077801699999995],[128.83181840000003,37.067585900000005],[128.85304650000003,37.050487999999994],[128.8765297,37.048253100000004],[128.8973952,37.04515670000001],[128.9101067,37.06617850000001],[128.92003730000005,37.088851399999996],[128.9400959,37.094301200000004],[128.96048930000003,37.077033],[128.98200710000003,37.0821824],[129.00255059999998,37.0795564],[129.02318,37.0768515],[129.04388669999997,37.0710307],[129.0666318,37.080638300000004],[129.08784490000002,37.096036700000006],[129.10920389999998,37.0935618],[129.12927319999997,37.083764099999996],[129.14963229999998,37.07530390000001],[129.17046549999998,37.0602883],[129.1906886,37.040901],[129.212157,37.04328339999999],[129.2328594,37.0466437],[129.2310161,37.069163200000006],[129.24551079999998,37.090566900000006],[129.2660372,37.102324900000006],[129.2870251,37.1158007],[129.30737330000002,37.12810840000001],[129.32864390000003,37.1408036],[129.3488332,37.146362700000005],[129.3692011,37.146933800000006],[129.39417780000002,37.154761699999995],[129.6243797,37.271039800000004],[129.5957004,37.3255615]]]],"type":"MultiPolygon"},"id":2308426,"type":"Feature","properties":{"boundary":"administrative","name:ko_rm":"Gangwon-do","name:uk":"Провінція Канвон","name:id":"Gangwon","ISO3166-2":"KR-42","name:ca":"Gangwon-do","name:sv":"Gangwon","name:ko":"강원도","is_in:country_code":"KR","name:mn":"Өмнөд Солонгосын Канвон","admin_level":"4","name:ms":"Gangwon","name:it":"Gangwon","name:en":"Gangwon-do","wikipedia":"ko:강원도 (남)","name:et":"Kangwŏni provints","name:es":"Gangwon","name:zh":"江原道","name:vi":"Gangwon","name:th":"จังหวัดคังว็อน","name:ja":"江原道","is_in":"대한민국","name:fa":"گانکون-دو","name:pl":"Gangwon","is_in:continent":"Asia","name:nl":"Gangwon-do","name:fi":"Gangwon","name:ru":"Канвондо","name:pt":"Gangwon","name:de":"Gangwon-do","name:no":"Gangwon","name:lt":"Kangvono provincija","name:bg":"Кануън-до","name":"강원도","name:fr":"Gangwon","is_in:country":"Republic of Korea"}},{"osm_type":"relation","name":"부산","geometry":{"coordinates":[[[[129.47417209999998,35.1316989],[129.2566418,35.1302407],[129.21247309999998,35.0828813],[129.17411419999996,35.0417291],[129.1433483,35.0087078],[129.1008314,34.949438],[129.06103290000001,34.89391890000001],[128.94371909999998,34.7300472],[128.92208960000002,34.7660475],[128.79625469999996,34.97517690000001],[128.75735650000001,35.018193700000005],[128.77775819999997,35.037328200000005],[128.78703710000002,35.0737945],[128.81826800000002,35.0776268],[128.82201010000003,35.0979915],[128.843096,35.108411600000004],[128.83168369999999,35.12877020000001],[128.8100436,35.137211],[128.8087776,35.159458300000004],[128.82886200000002,35.1571426],[128.8528946,35.1662997],[128.8769272,35.1516338],[128.88046770000003,35.172526600000005],[128.87625880000002,35.192888800000006],[128.8891152,35.2147343],[128.9095318,35.223063100000005],[128.9319661,35.221588600000004],[128.9526719,35.226113300000016],[128.98054340000002,35.225841200000005],[129.0037879,35.2428806],[129.0128401,35.273511500000005],[129.0362719,35.2764194],[129.0570852,35.29263690000001],[129.0773848,35.293304500000005],[129.09830600000004,35.30432],[129.1193774,35.3240005],[129.12744550000002,35.3458991],[129.1310933,35.3659544],[129.15276559999998,35.3617373],[129.17360099999996,35.3519022],[129.19407159999997,35.36460709999999],[129.20308379999997,35.3849551],[129.2243698,35.3796718],[129.2454413,35.38534],[129.26616509999997,35.384010499999995],[129.2817444,35.3628231],[129.28076059999998,35.341085799999995],[129.30154990000003,35.337375800000004],[129.3158919,35.317115],[129.5033723,35.19262390000001],[129.47417209999998,35.1316989]],[[128.90955749999998,35.220768400000004]],[[128.9102085,35.22197570000001]]]],"type":"MultiPolygon"},"id":2396450,"type":"Feature","properties":{"name:sk":"Pusan","official_name:zh":"釜山广域市","name:ka":"პუსანი","official_name:en":"Busan Metropolitan City","name:sr":"Бусан","ISO3166-2":"KR-26","name:ca":"Busan","name:sv":"Pusan","name:ko":"부산","name:os":"Пусан","name:sw":"Busan","is_in:country_code":"KR","ref":"02","name:kl":"Busan","name:gl":"Busan","admin_level":"4","name:cs":"Pusan","official_name:ja":"釜山広域市","name:vi":"Busan","name:ar":"بسان","name:ja":"釜山","is_in":"대한민국","name:fa":"بوسان","name:nn":"Pusan","name:ro":"Busan","name:nl":"Busan","population":"3586079","name:be":"Пусан","name:fi":"Busan","name:ru":"Пусан","name:no":"Busan","name:bi":"Busan","name:bg":"Пусан","name":"부산","name:fr":"Busan","name:jv":"Busan","boundary":"administrative","official_name":"부산광역시","name:hy":"Պուսան","name:uk":"Пусан","name:id":"Busan","name:mi":"Busan","name:ml":"ബുസാൻ","name:mn":"Пүсан","name:el":"Πουσάν","name:af":"Busan","name:mr":"बुसान","name:io":"Busan","name:it":"Busan","name:my":"ဘူဆန်မြို့","name:en":"Busan","name:eo":"Pusano","wikipedia":"en:Busan","name:et":"Pusan","name:eu":"Busan","name:es":"Busan","name:zh":"釜山","name:th":"ปูซาน","name:tl":"Busan","name:la":"Pusanum","name:pl":"Pusan","is_in:continent":"Asia","name:da":"Busan","name:he":"פוסן","name:tr":"Busan","name:pt":"Busan","name:de":"Busan","name:hi":"बुसान","official_name:ko":"부산광역시","name:lt":"Busanas","name:hr":"Busan","name:lv":"Pusana","is_in:country":"Republic of Korea"}},{"osm_type":"relation","name":"경상남도","geometry":{"coordinates":[[[[128.90955749999998,35.220768400000004]]],[[[128.9102085,35.22197570000001]]],[[[129.2110068,35.401323],[129.19458659999998,35.3813163],[129.1875238,35.3587457],[129.1672924,35.3541598],[129.14662549999997,35.364013],[129.12596489999999,35.36317220000001],[129.12783180000002,35.3431511],[129.1186479,35.32293260000001],[129.09830600000004,35.30432],[129.0773848,35.293304500000005],[129.05639840000003,35.291135900000015],[129.0362719,35.2764194],[129.0142563,35.27095380000001],[128.9841302,35.22653900000001],[128.9609158,35.2256471],[128.93833880000005,35.227727300000005],[128.91664740000002,35.2169405],[128.89664680000004,35.213033800000005],[128.87046519999998,35.201708700000005],[128.88016730000004,35.17973520000001],[128.88142900000005,35.1596688],[128.860791,35.1675977],[128.83753090000002,35.159493399999995],[128.8156441,35.16023010000001],[128.793886,35.1534233],[128.8139704,35.13408749999999],[128.8352671,35.127875100000004],[128.84234820000003,35.1072342],[128.82190710000003,35.0976632],[128.8182617,35.0740579],[128.78426549999998,35.0568333],[128.7611371,35.03591210000001],[128.7568072,35.0072555],[128.79625469999996,34.97517690000001],[128.92208960000002,34.7660475],[128.94371909999998,34.7300472],[128.7924545,34.5182705],[128.8070055,34.34496179999999],[128.17983089999998,34.157184799999996],[127.8985186,34.6101095],[127.83311560000001,34.70259860000001],[127.8016329,34.7534025],[127.798955,34.7868079],[127.79571920000001,34.817190999999994],[127.7944918,34.846421799999995],[127.79159930000002,34.873402999999996],[127.799985,34.8996573],[127.8000107,34.9233838],[127.7721565,34.940477699999995],[127.7640884,34.962180700000005],[127.77314360000001,34.9831748],[127.78533149999998,35.0045853],[127.773959,35.029891],[127.7674358,35.0513595],[127.7473085,35.05887739999999],[127.7255698,35.0794235],[127.70070249999999,35.100038100000006],[127.69473719999999,35.12057550000001],[127.681691,35.1412482],[127.66160660000001,35.156407099999996],[127.64152220000001,35.1686515],[127.61933499999999,35.189908200000005],[127.6174853,35.21015290000001],[127.61897879999998,35.2304575],[127.6146872,35.2508622],[127.59489040000001,35.2712039],[127.582829,35.291416100000006],[127.5918584,35.31148499999999],[127.6136702,35.328194700000005],[127.61844229999998,35.3487218],[127.61302640000001,35.368860399999996],[127.62883859999998,35.389118200000006],[127.64907529999999,35.4077655],[127.66594099999999,35.42815510000001],[127.66156370000002,35.4493087],[127.64070679999999,35.455111900000006],[127.63650109999999,35.475909],[127.6505344,35.49635130000001],[127.6346987,35.5168582],[127.61946370000001,35.536940900000005],[127.59916480000001,35.545601],[127.5894745,35.566071],[127.6099108,35.5841205],[127.61315520000001,35.605166800000006],[127.6281197,35.626312200000015],[127.62045079999999,35.6470771],[127.6354669,35.6674653],[127.64103940000001,35.6877786],[127.65967109999998,35.708161600000004],[127.66226960000002,35.728170200000015],[127.6619907,35.7492656],[127.6801739,35.77057830000001],[127.7009793,35.789337],[127.720995,35.8019483],[127.7335563,35.822029],[127.74725060000003,35.8430073],[127.76732000000001,35.8383473],[127.7881189,35.85184999999999],[127.8101623,35.853300499999996],[127.83033259999999,35.8699671],[127.8513697,35.88498559999999],[127.86455070000001,35.905893999999996],[127.8848593,35.909867999999996],[127.891082,35.8891316],[127.91141100000002,35.890511800000006],[127.93149540000002,35.8765341],[127.93110060000002,35.85608989999999],[127.95208829999999,35.860295],[127.97214699999999,35.850740099999996],[127.99311760000002,35.842869699999994],[128.01465679999998,35.831646199999994],[128.0352239,35.8345862],[128.05620950000002,35.8334728],[128.07715219999997,35.839352500000004],[128.0973332,35.831569599999995],[128.11796579999998,35.8256955],[128.12226700000002,35.8056792],[128.14079459999996,35.7849678],[128.1610045,35.77812490000001],[128.17638319999998,35.7578433],[128.1950815,35.7378057],[128.19877219999998,35.7173205],[128.204098,35.6972656],[128.18376469999995,35.6784364],[128.17583159999998,35.65776399999999],[128.19671419999997,35.6508108],[128.2172277,35.6406971],[128.2376683,35.652163800000004],[128.25834060000003,35.6473235],[128.27839930000002,35.6519057],[128.29868109999998,35.654786099999995],[128.32037050000002,35.649394900000004],[128.3407381,35.64237120000001],[128.36199840000003,35.62911720000001],[128.38193680000006,35.60595240000001],[128.40218430000002,35.6163495],[128.4227536,35.62397200000001],[128.44416409999997,35.63532590000001],[128.46476339999998,35.637418700000005],[128.4875086,35.63595380000001],[128.5083654,35.6561809],[128.51656659999998,35.6764796],[128.5372045,35.66378220000001],[128.5350588,35.6433477],[128.53823450000002,35.62325690000001],[128.55883390000002,35.61223270000001],[128.5782059,35.59053910000001],[128.59928159999998,35.5826691],[128.61969639999998,35.584969099999995],[128.63977219999995,35.5852937],[128.6598823,35.5978431],[128.68045600000002,35.594367399999996],[128.70345859999998,35.57873200000001],[128.72731950000002,35.57817360000001],[128.747979,35.5719395],[128.7684925,35.56991490000001],[128.7888387,35.568068200000006],[128.809202,35.5894119],[128.8312347,35.5973475],[128.85160240000002,35.59555390000001],[128.8679102,35.6162099],[128.87912830000002,35.6362816],[128.90058589999998,35.63279370000001],[128.9209536,35.638465000000004],[128.9412096,35.63323320000001],[128.96221240000003,35.614584099999995],[128.9827559,35.6074597],[129.0030678,35.62051490000001],[129.0231779,35.604626499999995],[129.01459479999997,35.583339200000005],[128.9934805,35.568260200000005],[128.9721086,35.556530200000005],[128.99253630000004,35.54766169999999],[128.99845870000001,35.526988],[129.018543,35.5239842],[129.03954579999998,35.52913240000001],[129.0611151,35.5143436],[129.08145820000001,35.5030252],[129.1027442,35.4976797],[129.11407389999997,35.4772727],[129.13478909999998,35.456503999999995],[129.15487349999998,35.438953700000006],[129.17844690000004,35.43214230000001],[129.1997329,35.429974300000005],[129.21938819999997,35.409550100000004]]]],"type":"MultiPolygon"},"id":2393403,"type":"Feature","properties":{"boundary":"administrative","name:ko_rm":"Gyeongsangnam-do","name:uk":"Південна провінція Кьонсан","name:id":"Gyeongsang Selatan","ISO3166-2":"KR-48","name:ca":"Gyeongsangnam-do","name:sv":"Sydgyeongsang","name:ko":"경상남도","name:sw":"Gyeongsangnam-do","is_in:country_code":"KR","ref":"15","admin_level":"4","name:ms":"Gyeongsang Selatan","name:it":"Sud Gyeongsang","name:en":"Gyeongsangnam-do","wikipedia":"ko:경상남도","name:et":"Lõuna-Kyŏngsangi provints","name:es":"Gyeongsang del Sur","name:zh":"庆尚南道","name:vi":"Gyeongsang Nam","name:th":"จังหวัดคย็องซังใต้","name:ja":"慶尚南道","is_in":"대한민국","name:fa":"جئونسانگنام-دو","name:pl":"Gyeongsang Południowy","is_in:continent":"Asia","name:nl":"Gyeongsangnam-do","name:fi":"Etelä-Gyeongsang","name:ru":"Кёнсан-Намдо","name:pt":"Gyeongsang do Sul","name:de":"Gyeongsangnam-do","name:no":"Sør-Gyeongsang","name:lt":"Pietų Kiongsango provincija","alt_name:en":"South Gyeongsang Province","name:bg":"Кьонсан-Намдо","name":"경상남도","name:fr":"Gyeongsang du Sud","short_name":"경남","is_in:country":"Republic of Korea"}},{"osm_type":"relation","name":"충청남도","geometry":{"coordinates":[[[[127.63396460000001,36.0302586],[127.61263779999999,36.0225865],[127.6132386,36.0010291],[127.59276799999999,36.020261],[127.57274369999999,36.025784900000005],[127.552125,36.0330698],[127.5317445,36.035705500000006],[127.53760890000001,36.0155194],[127.5347958,35.9942482],[127.51432090000002,35.9831469],[127.4930778,35.9837928],[127.47243119999999,35.9836001],[127.45224390000001,35.9887464],[127.4389187,36.008771],[127.4187914,36.021579900000006],[127.39878849999998,36.009883599999995],[127.3782406,36.02703090000001],[127.3670827,36.04813020000001],[127.36038789999999,36.0686618],[127.36022480000001,36.0888343],[127.3547059,36.1096916],[127.33419020000001,36.1296491],[127.3139921,36.118878900000006],[127.29386480000001,36.1122226],[127.27218819999999,36.1062626],[127.2501813,36.106533000000006],[127.24194150000001,36.085588200000004],[127.2204452,36.097171],[127.1994897,36.08615],[127.1779032,36.091005300000006],[127.15747979999999,36.08382459999999],[127.1365414,36.08517200000001],[127.12576109999998,36.0647835],[127.1052819,36.0727047],[127.08512460000001,36.0769572],[127.06310470000001,36.091976300000006],[127.05699779999999,36.113117],[127.0489941,36.134266],[127.02688409999999,36.13732290000001],[127.00465330000002,36.1510188],[126.9822158,36.1471602],[126.9583476,36.156867899999995],[126.93362840000002,36.145501900000006],[126.91114080000001,36.135659200000006],[126.8861898,36.1348205],[126.8745769,36.10945230000001],[126.8630756,36.0593715],[126.83469140000001,36.0496499],[126.8111738,36.0338263],[126.78936420000001,36.029960100000004],[126.7634519,36.026343700000005],[126.74353920000001,36.0056413],[126.7231115,35.9942534],[126.6989072,36.000225300000004],[126.66800819999999,35.993975600000006],[126.64742600000001,35.9942673],[126.62220029999999,35.98985749999999],[126.59951530000001,35.9838362],[126.5665563,36.000086399999994],[126.5670713,36.034936800000004],[126.5799459,36.06075220000001],[126.51351290000001,36.0880852],[126.37635549999999,36.1475742],[126.0317198,36.16241220000001],[125.5292062,36.279877],[125.3317033,36.4944229],[125.31083779999999,36.542639300000005],[125.29652130000001,36.61319890000001],[125.30634889999999,36.6771272],[125.4164711,36.858814599999995],[125.818183,36.858554],[126.05048409999999,36.931231399999994],[126.17923629999999,37.0128984],[126.2779479,37.056194],[126.35433859999999,37.07073390000001],[126.42137960000001,37.0834919],[126.4657369,37.062707700000004],[126.48679109999999,37.0735696],[126.50652360000002,37.0960486],[126.5270543,37.090462],[126.5438085,37.0452817],[126.565162,37.04908],[126.58783960000001,37.0501318],[126.61476470000001,37.0694606],[126.71695960000002,37.0210034],[126.7607267,37.002389300000004],[126.7903158,36.9873952],[126.82873409999998,36.9687047],[126.82490849999999,36.9455941],[126.836984,36.9077142],[126.85792070000001,36.8975994],[126.88265709999999,36.89979580000001],[126.9095723,36.9037624],[126.94011430000002,36.9169279],[126.99393330000001,36.934982],[127.0153535,36.9351964],[127.03625720000001,36.9314207],[127.0565865,36.9368996],[127.07719990000001,36.94122439999999],[127.0978764,36.960536000000005],[127.1180037,36.9707902],[127.1395643,36.9693861],[127.16097909999999,36.9644571],[127.1819089,36.9561431],[127.20402530000001,36.9505908],[127.2129903,36.9299041],[127.2338376,36.92354890000001],[127.25384129999999,36.92175],[127.27405209999999,36.913640799999996],[127.28851920000001,36.8935214],[127.30976869999999,36.878191900000004],[127.3132685,36.85747009999999],[127.3368655,36.850645199999995],[127.3394747,36.829962300000005],[127.35977089999999,36.820620999999996],[127.38012140000001,36.8136124],[127.40175070000001,36.799256500000006],[127.4020082,36.77844280000001],[127.41359530000001,36.757871099999996],[127.39308179999999,36.7520396],[127.37153829999998,36.75855870000001],[127.35111060000001,36.75347],[127.3297066,36.7340196],[127.30854719999999,36.7168761],[127.29532920000001,36.69650810000001],[127.2735645,36.6947016],[127.252298,36.69673860000001],[127.2304412,36.707518500000006],[127.21018520000001,36.7186649],[127.18979609999998,36.72845110000001],[127.1697496,36.73238880000001],[127.1495372,36.72421690000001],[127.129455,36.7100249],[127.1431879,36.68975820000001],[127.16357269999999,36.682565600000004],[127.1573092,36.6622246],[127.15593379999999,36.641737],[127.1515564,36.6216617],[127.16833629999998,36.601507],[127.18872109999998,36.587139],[127.2024776,36.5670968],[127.19222300000001,36.546006399999996],[127.17052709999999,36.53746939999999],[127.17541519999999,36.516415800000004],[127.17557399999998,36.49611880000001],[127.1915857,36.4747332],[127.20061990000002,36.45416649999999],[127.21614400000001,36.4340933],[127.23706950000002,36.4193316],[127.25865160000001,36.414514],[127.2789667,36.39930030000001],[127.28038179999999,36.377994099999995],[127.27099940000001,36.357259199999994],[127.2672883,36.3371947],[127.257641,36.3169426],[127.25275509999999,36.2964915],[127.2608189,36.27583260000001],[127.2823194,36.255659800000004],[127.28419480000001,36.23538820000001],[127.3043854,36.22903430000001],[127.3207694,36.208961900000006],[127.34102550000001,36.1897606],[127.3522693,36.2098466],[127.3620969,36.23001230000001],[127.36415940000002,36.2505055],[127.3780039,36.2714063],[127.386602,36.2508499],[127.40106450000002,36.2304975],[127.4137685,36.2102955],[127.43437320000001,36.198090500000006],[127.45462390000003,36.2074042],[127.4749067,36.22551410000001],[127.4951789,36.238355200000015],[127.51571390000001,36.24032820000001],[127.5357354,36.24617730000001],[127.5498524,36.22575440000001],[127.5701964,36.2330242],[127.5904503,36.2240234],[127.59929300000002,36.20373330000001],[127.5959005,36.18295290000001],[127.6013079,36.16292930000001],[127.5904074,36.142380700000004],[127.60079289999999,36.1218961],[127.61761570000002,36.1014061],[127.6325931,36.0804599],[127.6201906,36.060410100000006],[127.61933259999999,36.04011280000001],[127.63958869999999,36.03223510000001]]]],"type":"MultiPolygon"},"id":2327259,"type":"Feature","properties":{"boundary":"administrative","name:uk":"Південна провінція Чхунчхон","name:id":"Chungcheong Selatan","ISO3166-2":"KR-44","name:ca":"Chungcheongnam-do","name:sv":"Sydchungcheong","name:ko":"충청남도","name:sw":"Chungcheongnam-do","is_in:country_code":"KR","name:mn":"Өмнөд Чүнчон","admin_level":"4","name:ms":"Chungcheong Selatan","name:it":"Sud Chungcheong","name:en":"Chungcheongnam-do","wikipedia":"en:South Chungcheong Province","name:et":"Lõuna-Ch'ungch'ŏngi provints","name:es":"Chungcheong del Sur","name:zh":"忠清南道","name:vi":"Chungcheong Nam","name:th":"จังหวัดชุงช็องใต้","name:ja":"忠清南道","is_in":"대한민국","name:fa":"چونگچئونگنام-دو","name:pl":"Chungcheong Południowy","is_in:continent":"Asia","name:nl":"Chungcheongnam-do","name:fi":"Etelä-Chungcheong","name:ru":"Чхунчхон-Намдо","name:pt":"Chungcheong do Sul","name:de":"Chungcheongnam-do","name:no":"Sør-Chungcheong","name:lt":"Pietų Čungčongo provincija","alt_name:en":"South Chungcheong Province","name:bg":"Чхунчхън-Намдо","name":"충청남도","name:fr":"Chungcheong du Sud","short_name":"충남","is_in:country":"Republic of Korea"}},{"osm_type":"relation","name":"세종","geometry":{"coordinates":[[[[127.40064260000001,36.49327],[127.3799509,36.498771500000004],[127.35840409999999,36.4839565],[127.35674549999999,36.4634578],[127.34422380000002,36.4432602],[127.3260909,36.422456800000006],[127.30540579999999,36.42473590000001],[127.285021,36.4155],[127.26414480000001,36.41708679999999],[127.24412480000002,36.41444489999999],[127.2230598,36.4275035],[127.20279889999999,36.4472289],[127.1945511,36.46845570000001],[127.1959158,36.48968109999999],[127.17481869999999,36.4990824],[127.1803934,36.5206925],[127.17205699999998,36.540945],[127.18904509999999,36.5616403],[127.20163640000001,36.58185099999999],[127.18099629999999,36.5962011],[127.16031109999999,36.604538700000006],[127.15987549999998,36.6246272],[127.15335879999998,36.64462949999999],[127.1548158,36.6646515],[127.1626285,36.68528439999999],[127.142046,36.6940634],[127.1373943,36.71408439999999],[127.1575125,36.7302897],[127.17829259999999,36.728772700000015],[127.19907649999999,36.72719910000001],[127.21911160000002,36.7149496],[127.2397109,36.70132530000001],[127.26129310000002,36.6930876],[127.28150190000001,36.6910848],[127.30210129999999,36.68530330000001],[127.30106060000001,36.66419200000001],[127.2823186,36.6432184],[127.29392720000001,36.6228817],[127.30624390000001,36.60241990000001],[127.31699420000001,36.58231530000001],[127.3378511,36.5847741],[127.3583646,36.575422800000005],[127.37841999999999,36.5617479],[127.3846717,36.5414354],[127.4054213,36.53753220000001],[127.4057131,36.516897699999994],[127.41115050000002,36.49673550000001]]]],"type":"MultiPolygon"},"id":2349795,"type":"Feature","properties":{"boundary":"administrative","official_name":"세종특별자치시","official_name:zh":"世宗特別自治市","official_name:en":"Sejong Metropolitan Autonomous City","ISO3166-2":"KR-50","name:sv":"Sejong","is_in:country_code":"KR","admin_level":"4","name:ms":"Sejong","name:it":"Sejong","name:en":"Sejong","wikipedia":"ko:세종특별자치시","official_name:ja":"世宗特別自治市","name:es":"Sejong","name:vi":"Sejong","name:th":"เมืองเซจง","name:ja":"世宗特別自治市","is_in":"대한민국","is_in:continent":"Asia","name:nl":"Sejong","population":"122263","name:ru":"Седжон","name:de":"Sejong","name:no":"Sejong","alt_name":"세종시","official_name:ko":"세종특별자치시","name:bi":"Sejong","name:lt":"Sedžongas","alt_name:en":"Sejong Special Autonomous City","name":"세종","name:fr":"Sejong","is_in:country":"Republic of Korea"}},{"osm_type":"relation","name":"대전","geometry":{"coordinates":[[[[127.5548559,36.3992954],[127.5410768,36.419453],[127.5207832,36.421181399999995],[127.50061300000002,36.41196059999999],[127.4897984,36.4343373],[127.50112800000001,36.4557411],[127.48061450000002,36.4552579],[127.48473440000001,36.475517100000005],[127.46422080000002,36.4611256],[127.44406350000003,36.45007999999999],[127.42209079999999,36.456362399999996],[127.40063320000002,36.4631965],[127.4028648,36.4861106],[127.38218249999998,36.4998064],[127.3599952,36.4882143],[127.3599856,36.46815070000001],[127.35025340000001,36.4479552],[127.33574049999999,36.427867799999994],[127.3154479,36.4219734],[127.2951919,36.4196786],[127.2789667,36.39930030000001],[127.28038179999999,36.377994099999995],[127.27099940000001,36.357259199999994],[127.2672883,36.3371947],[127.257641,36.3169426],[127.25275509999999,36.2964915],[127.2608189,36.27583260000001],[127.2823194,36.255659800000004],[127.28419480000001,36.23538820000001],[127.3043854,36.22903430000001],[127.3207694,36.208961900000006],[127.33793560000001,36.188633200000005],[127.35098179999999,36.208996500000005],[127.3620969,36.229200500000005],[127.36467440000001,36.24939810000001],[127.3789856,36.2704877],[127.3869024,36.25019230000001],[127.40119320000002,36.229874300000006],[127.41486280000001,36.2094472],[127.43501690000001,36.198315600000015],[127.45535879999998,36.2049473],[127.47248199999999,36.2249775],[127.49273269999999,36.238961],[127.48677279999998,36.2591745],[127.49646630000001,36.27925830000001],[127.496638,36.299442400000004],[127.4975811,36.3196558],[127.5012718,36.339846699999995],[127.52199990000001,36.35419149999999],[127.5261047,36.3745826],[127.53702030000001,36.3947575],[127.55736209999999,36.3972792]]]],"type":"MultiPolygon"},"id":2349984,"type":"Feature","properties":{"official_name:zh":"大田广域市","official_name:en":"Daejeon Metropolitan City","ISO3166-2":"KR-30","name:ca":"Daejeon","name:sv":"Daejeon","name:ko":"대전","name:sw":"Daejeon","is_in:country_code":"KR","name:kl":"Daejeon","admin_level":"4","name:cs":"Tedžon","official_name:ja":"大田広域市","name:vi":"Daejeon","name:ar":"دايجيون","name:ja":"大田広域市","is_in":"대한민국","name:fa":"دائجونگ","name:ro":"Daejeon","name:nl":"Daejeon","population":"1537324","name:fi":"Daejeon","name:ru":"Тэджон","name:no":"Daejeon","name:bi":"Daejeon","name:bg":"Теджън","name":"대전","name:fr":"Daejeon","boundary":"administrative","official_name":"대전광역시","name:ia":"Daejeon","name:uk":"Теджон","name:id":"Daejeon","name:mi":"Daejeon","name:mn":"Тэжон","name:af":"Daejeon","name:mr":"देजॉन","name:uz":"Daejeon","name:io":"Daejon","name:ms":"Daejeon","name:it":"Daejeon","name:en":"Daejeon","name:eo":"Deĝon","wikipedia":"ko:대전광역시","name:et":"Taejŏn","name:eu":"Daejeon","name:es":"Daejeon","name:zh":"大田","name:th":"แทจ็อน","name:tl":"Daejeon","name:la":"Daejeon","name:pl":"Daejeon","is_in:continent":"Asia","name:da":"Daejeon","name:he":"טג'אן","name:pt":"Daejeon","name:de":"Daejeon","name:lt":"Tedžonas","is_in:country":"Republic of Korea"}},{"osm_type":"relation","name":"충청북도","geometry":{"coordinates":[[[[128.6442994,37.0608483],[128.6303326,37.03873220000001],[128.6092182,37.0522965],[128.58861890000003,37.042979900000006],[128.56750449999998,37.026124900000006],[128.5579001,37.00611330000001],[128.53712900000002,36.9910325],[128.51652969999998,36.9871591],[128.49846230000003,36.96676],[128.4758459,36.95702139999999],[128.46013890000003,36.9367515],[128.44493830000002,36.9151672],[128.43197790000002,36.89333310000001],[128.43893870000002,36.8727682],[128.4469854,36.85266479999999],[128.4339391,36.8324873],[128.4161421,36.812325200000004],[128.3955277,36.81465119999999],[128.3753596,36.8092381],[128.35523560000001,36.8087862],[128.3350407,36.816564899999996],[128.3148966,36.822679900000004],[128.29456289999996,36.8361832],[128.2822891,36.8562051],[128.2619129,36.8644768],[128.24066129999997,36.8687685],[128.2360843,36.848355000000005],[128.21388209999995,36.837588],[128.19881880000003,36.8164309],[128.1785198,36.8204161],[128.15800630000004,36.8227865],[128.1364628,36.8359084],[128.11589349999997,36.82091080000001],[128.0952211,36.8041132],[128.07475049999996,36.8125829],[128.0545138,36.804345999999995],[128.04431069999998,36.7840742],[128.0384527,36.763431700000005],[128.03905349999997,36.74252580000001],[128.05979449999998,36.72897860000001],[128.0589577,36.70856220000001],[128.0387102,36.7148373],[128.0184327,36.7272898],[127.9977819,36.71810890000001],[127.9776331,36.72234000000001],[127.9575873,36.73375860000001],[127.9488895,36.7132531],[127.93120730000001,36.692989100000005],[127.91089970000002,36.692854800000006],[127.889485,36.6807754],[127.91014440000002,36.67873620000001],[127.93064940000002,36.66621220000001],[127.9388376,36.6459891],[127.9324089,36.625960500000005],[127.9167791,36.605744],[127.9087969,36.62599830000001],[127.8883692,36.6408068],[127.8673493,36.6418708],[127.84696450000001,36.6339849],[127.8582448,36.613632800000005],[127.8381175,36.6092579],[127.8181103,36.6086774],[127.79713220000001,36.6001801],[127.81237679999998,36.5796571],[127.8326522,36.5731606],[127.8532441,36.57101],[127.8734432,36.5559434],[127.8805586,36.535605200000006],[127.9009305,36.519100300000005],[127.8969179,36.49859380000001],[127.87596669999999,36.48704109999999],[127.87854159999999,36.4668556],[127.87399249999999,36.44642149999999],[127.8820154,36.42571860000001],[127.87275639999999,36.4056916],[127.87875599999998,36.385462499999996],[127.8858456,36.3652005],[127.87287659999998,36.344787999999994],[127.85283509999998,36.33189349999999],[127.8423209,36.311596699999996],[127.84768530000001,36.290879700000005],[127.8678555,36.2768],[127.88844199999998,36.2815085],[127.90559960000002,36.3017067],[127.91444010000001,36.2815924],[127.93491070000002,36.27257990000001],[127.9551968,36.256751900000005],[127.97535839999999,36.25330590000001],[127.99537849999999,36.267580200000005],[128.01554869999998,36.26827220000001],[128.03583469999998,36.2606277],[128.03011840000002,36.2404829],[128.0405898,36.22017970000001],[128.05599640000003,36.19997510000001],[128.0359764,36.197689399999994],[128.0159134,36.208667],[127.99587199999999,36.205429300000006],[127.97578759999999,36.189533100000006],[127.98499290000001,36.169095500000005],[127.9894433,36.148828300000005],[127.98706150000001,36.12876130000001],[127.96690410000001,36.1176659],[127.96302030000001,36.09755630000001],[127.96196890000002,36.0772681],[127.94448090000002,36.05668059999999],[127.92411750000001,36.0537142],[127.90361260000002,36.0392986],[127.88354109999999,36.027740300000005],[127.8634374,36.02871200000001],[127.84335940000001,36.0372858],[127.82283729999997,36.0308482],[127.80206629999999,36.026478600000004],[127.7816901,36.01646139999999],[127.760962,36.025694200000004],[127.73963300000001,36.0256248],[127.71932550000001,36.0342458],[127.6985545,36.039520700000004],[127.67812679999999,36.056036999999996],[127.65791320000001,36.047989099999995],[127.6380219,36.068220700000005],[127.6248255,36.088298],[127.6198065,36.1089648],[127.5995483,36.12373330000001],[127.59096530000001,36.144425399999996],[127.6016512,36.164869499999995],[127.59791750000001,36.1848926],[127.5995912,36.2052916],[127.58688829999998,36.22582370000001],[127.5668468,36.2304279],[127.54652640000002,36.23119820000001],[127.53337499999999,36.2513687],[127.51324620000001,36.240795500000004],[127.4927756,36.23849370000001],[127.48769010000001,36.258549900000006],[127.49540950000001,36.27858630000001],[127.49150960000003,36.29876790000001],[127.49865390000002,36.31886049999999],[127.5008426,36.3391208],[127.5211845,36.35332749999999],[127.5266348,36.3735097],[127.53451620000001,36.39372290000001],[127.5548559,36.3992954],[127.5410768,36.419453],[127.5207832,36.421181399999995],[127.50061300000002,36.41196059999999],[127.4897984,36.4343373],[127.50112800000001,36.4557411],[127.48061450000002,36.4552579],[127.48473440000001,36.475517100000005],[127.46422080000002,36.4611256],[127.44406350000003,36.45007999999999],[127.42209079999999,36.456362399999996],[127.40174900000001,36.4572599],[127.40415220000001,36.4787264],[127.40964840000001,36.50011810000001],[127.40416390000003,36.5212899],[127.40012120000002,36.54168709999999],[127.3798652,36.5556395],[127.36657,36.5757278],[127.3455737,36.575943200000005],[127.32516960000001,36.584963599999995],[127.3048062,36.5914116],[127.3017593,36.611841899999995],[127.29189950000001,36.63211190000001],[127.28712510000001,36.6525839],[127.3052706,36.67313490000001],[127.28811950000001,36.6932046],[127.30854719999999,36.70875710000001],[127.32089819999999,36.72912190000001],[127.34166920000003,36.73214860000001],[127.33617609999999,36.75278230000001],[127.35763370000001,36.75910880000001],[127.37874809999997,36.7592463],[127.3990041,36.74645520000001],[127.41954020000001,36.757526399999996],[127.4020082,36.77844280000001],[127.3990041,36.79911900000001],[127.3789197,36.8145126],[127.35746209999999,36.8270176],[127.3353205,36.8347093],[127.3322306,36.856688899999995],[127.31077289999999,36.86767639999999],[127.3017264,36.88799899999999],[127.29982310000001,36.908247499999995],[127.2956818,36.929087599999995],[127.3165515,36.934463099999995],[127.3368807,36.9412112],[127.3580293,36.947645699999995],[127.37900209999998,36.957762699999996],[127.39125870000001,36.978092100000005],[127.39531849999999,36.99821390000001],[127.41621690000002,37.0004727],[127.43724960000003,37.0086054],[127.45750140000001,37.0204515],[127.4571881,37.04231600000001],[127.47781320000001,37.0531842],[127.49932240000001,37.04833430000001],[127.52157829999999,37.0560098],[127.54428910000001,37.048598000000005],[127.56712860000002,37.0534068],[127.5793552,37.0753611],[127.5997958,37.084843199999995],[127.620363,37.0904884],[127.63465590000001,37.110524],[127.636409,37.13259000000001],[127.6334607,37.152623],[127.65352370000001,37.14801890000001],[127.67513369999999,37.135602500000005],[127.69527809999998,37.1470902],[127.70639320000001,37.168316200000014],[127.72837449999999,37.1892697],[127.74866910000001,37.2010124],[127.75786160000001,37.1682444],[127.7805724,37.1489236],[127.80270069999999,37.1441376],[127.8234074,37.1503924],[127.845983,37.1527201],[127.866857,37.16237550000001],[127.887907,37.1596137],[127.90862010000001,37.167083],[127.93052410000001,37.1716347],[127.93362250000001,37.1928094],[127.9287919,37.2141944],[127.93555370000001,37.23870810000001],[127.9556467,37.24803130000001],[127.9788253,37.258490900000005],[128.0000743,37.2538019],[128.01967639999998,37.23285520000001],[128.0343191,37.2109945],[128.0473928,37.188824],[128.06832690000005,37.193931600000006],[128.0923852,37.19927810000001],[128.114006,37.21213010000001],[128.12911219999998,37.23291420000001],[128.15086169999998,37.21805630000001],[128.17243950000002,37.21836390000001],[128.19016349999998,37.241982],[128.21032519999997,37.2456716],[128.23193730000003,37.226360400000004],[128.25363529999998,37.2264971],[128.27371969999996,37.209368500000004],[128.2967309,37.215636700000005],[128.3188151,37.22361980000001],[128.3292607,37.20273060000001],[128.30894460000002,37.18552820000001],[128.288371,37.170756700000005],[128.2682609,37.15488779999999],[128.28970999999999,37.139330400000006],[128.3109445,37.1445986],[128.33142370000002,37.1500513],[128.35427180000002,37.1552094],[128.37461369999997,37.1527261],[128.39646620000002,37.149599800000004],[128.39559930000001,37.12825890000001],[128.417014,37.12053260000001],[128.43946730000002,37.1098828],[128.4607576,37.1101943],[128.4816102,37.1133873],[128.5017261,37.122049000000004],[128.52275459999998,37.103308600000005],[128.5452165,37.087897999999996],[128.56604760000002,37.0879939],[128.58638090000002,37.0797841],[128.6077355,37.0762438],[128.62851519999998,37.07491530000001],[128.65232460000001,37.06539600000001]]]],"type":"MultiPolygon"},"id":2327258,"type":"Feature","properties":{"boundary":"administrative","name:ko_rm":"Chungcheongbuk-do","name:uk":"Північна провінція Чхунчхон","name:id":"Chungcheong Utara","ISO3166-2":"KR-43","name:ca":"Chungcheongbuk-do","name:sv":"Nordchungcheong","name:ko":"충청북도","name:sw":"Chungcheongbuk-do","is_in:country_code":"KR","ref":"충북","name:mn":"Умард Чүнчон","admin_level":"4","name:it":"Nord Chungcheong","name:en":"Chungcheongbuk-do","wikipedia":"ko:충청북도","name:et":"Põhja-Ch'ungch'ŏngi provints","name:es":"Chungcheong del Norte","name:zh":"忠清北道","name:vi":"Chungcheong Bắc","name:ja":"忠清北道","is_in":"대한민국","name:fa":"چونگچیونبوک-دو","name:pl":"Ch'ungch'ŏng Północny","is_in:continent":"Asia","name:nl":"Chungcheongbuk-do","name:fi":"Pohjois-Chungcheon","name:ru":"Чхунчхон-Пукто","name:pt":"Chungcheong do Norte","name:de":"Chungcheongbuk-do","name:no":"Nord-Chungcheong","name:lt":"Šiaurės Čungčongo provincija","alt_name:en":"North Chungcheong Province","name:bg":"Чхунчхън-Пукто","name":"충청북도","name:fr":"Chungcheong du Nord","short_name":"충북","is_in:country":"Republic of Korea"}}],"geocoding":{"license":"ODbL (see http://www.openstreetmap.org/copyright)","generator":{"package":"fences-builder","author":{"name":"Mapzen"},"version":"0.1.2"},"creation_date":"2016-10-12"},"type":"FeatureCollection"}
