{"type":"FeatureCollection","geocoding":{"creation_date":"2016-10-12","generator":{"author":{"name":"Mapzen"},"package":"fences-builder","version":"0.1.2"},"license":"ODbL (see http://www.openstreetmap.org/copyright)"},"features":[{"id":2184073,"osm_type":"relation","type":"Feature","name":"Kalaallit Nunaat","properties":{"flag":"http://upload.wikimedia.org/wikipedia/commons/0/09/Flag_of_Greenland.svg","name":"Kalaallit Nunaat","name:af":"Groenland","name:am":"ግሪንላንድ","name:an":"Gronlandia","name:ar":"جرينلاند","name:az":"Qrenlandiya","name:be":"Грэнландыя","name:bg":"Гренландия","name:bn":"গ্রিনল্যান্ড","name:bo":"གེ་རེན་ལ","name:br":"Greunland","name:bs":"Grenland","name:ca":"Grenlàndia","name:cs":"Grónsko","name:cv":"Гренланди","name:cy":"Yr Ynys Las","name:da":"Grønland","name:de":"Grönland","name:dv":"ގުރީންލޭންޑު","name:el":"Γροιλανδία","name:en":"Greenland","name:eo":"Gronlando","name:es":"Groenlandia","name:et":"Gröönimaa","name:eu":"Groenlandia","name:fa":"گرینلند","name:fi":"Grönlanti","name:fo":"Grønland","name:fr":"Groenland","name:fy":"Grienlân","name:ga":"An Ghraonlainn","name:gd":"A' Ghraonlainn","name:gl":"Groenlandia","name:gn":"Kyoẽlándia","name:gv":"Greenlynn","name:he":"גרינלנד","name:hi":"ग्रीनलैण्ड","name:hr":"Grenland","name:hu":"Grönland","name:hy":"Գրենլանդիա","name:ia":"Groenlandia","name:id":"Greenland","name:ie":"Grenland","name:io":"Grenlando","name:is":"Grænland","name:it":"Groenlandia","name:iu":"ᐊᑯᑭᑦᑐᑦ","name:ja":"グリーンランド","name:jv":"Greenland","name:ka":"გრენლანდია","name:kk":"Гренландия","name:kl":"Kalaallit Nunaat","name:kn":"ಗ್ರೀನ್‍ಲ್ಯಾಂಡ್","name:ko":"그린란드","name:ku":"Grînlenda","name:kv":"Гренландия","name:kw":"Greunland","name:la":"Groenlandia","name:lb":"Grönland","name:li":"Greunland","name:ln":"Groenlandi","name:lt":"Grenlandija","name:lv":"Grenlande","name:mg":"Groenlanda","name:mi":"Greenland","name:mk":"Гренланд","name:ml":"ഗ്രീൻലാൻഡ്","name:mn":"Гренланд","name:mr":"ग्रीनलँड","name:ms":"Greenland","name:my":"ဂရင်းလန်ကျွန်း","name:ne":"ग्रीनल्याण्ड","name:nl":"Groenland","name:nn":"Grønland","name:no":"Grønland","name:nv":"Haʼaʼaahjí Hakʼaz Dineʼé Bikéyah","name:oc":"Groenlàndia","name:or":"ଗ୍ରୀନଲାଣ୍ଡ","name:os":"Гренланди","name:pa":"ਗਰੀਨਲੈਂਡ","name:pl":"Grenlandia","name:pt":"Gronelândia","name:qu":"Kalalit Nunat","name:ro":"Groenlanda","name:ru":"Гренландия","name:rw":"Goronulande","name:se":"Kalaallit Nunaat","name:sh":"Grenland","name:sk":"Grónsko","name:sl":"Grenlandija","name:so":"Griinland","name:sq":"Groenlanda","name:sr":"Гренланд","name:su":"Lemah Héjo","name:sv":"Grönland","name:sw":"Greenland","name:ta":"கிறீன்லாந்து","name:te":"గ్రీన్‌లాండ్","name:tg":"Гренландия","name:th":"กรีนแลนด์","name:tl":"Lupanlunti","name:tr":"Grönland","name:tt":"Гренландия","name:ug":"گرېنلاندىيە","name:uk":"Ґренландія","name:ur":"گرین لینڈ","name:vi":"Greenland","name:wo":"Groenlaand","name:yi":"גרינלאנד","name:yo":"Grínlándì","name:zh":"格陵兰","boundary":"administrative","name:als":"Grönland","name:ang":"Grēneland","name:arz":"جرينلاند","name:ast":"Groenlandia","name:bar":"Grönland","name:bpy":"গ্রীনল্যান্ড","name:chr":"ᎢᏤᎢᏳᏍᏗ ᎦᏙᎯ","name:diq":"Gronlanda","name:dsb":"Grönlandska","name:ext":"Groenlándia","name:frp":"Grônlande","name:frr":"Greenlun","name:hif":"Greenland","name:hsb":"Grönlandska","name:ilo":"Kalaallit Nunaat","name:lij":"Gròenlandia","name:mhr":"Гренландий","name:nah":"Groentlālpan","name:nds":"Gröönland","name:nov":"Verdi-lande","name:pih":"Griinland","name:pms":"Groenlandia","name:pnb":"گرینلینڈ","name:rue":"Ґронсько","name:sah":"Гренландия","name:scn":"Groenlannia","name:sco":"Greenland","name:stq":"Gräinlound","name:szl":"Grynlandyjo","name:tpi":"Greenland","name:tzl":"Päts-Virt","name:vec":"Groenlandia","name:war":"Greenland","name:wuu":"格陵兰","name:xal":"Гринлэндин Арл","name:zea":"Hroenland","wikidata":"Q223","ISO3166-1":"GL","wikipedia":"en:Greenland","name:pt-br":"Groelândia","population":"57564","admin_level":"2","alt_name:eo":"Grenlando","alt_name:pt":"Groenlândia","name:nds-nl":"Gruunlaand","name:simple":"Greenland","name:zh-yue":"格陵蘭","name:bat-smg":"Grenlandėjė","name:be-tarask":"Грэнляндыя","is_in:continent":"North America","name:zh-min-nan":"Chheⁿ-tē","ISO3166-1:alpha2":"GL","ISO3166-1:alpha3":"GRL","ISO3166-1:numeric":"304","name:zh-classical":"格陵蘭"},"geometry":{"type":"MultiPolygon","coordinates":[[[[-10.041283199999999,81.39829970000001],[-10.0826571,81.4271015],[-10.152368,81.4546708],[-10.249124899999998,81.4803927],[-10.348957099999998,81.4994824],[-10.352433800000004,81.50469590000002],[-10.3551257,81.5079681],[-10.3581853,81.51123320000002],[-10.3616121,81.51449040000001],[-10.365794100000002,81.5180541],[-10.374090200000001,81.5242053],[-10.382459200000003,81.52987269999998],[-10.389467500000002,81.53419390000002],[-10.401214399999999,81.54062960000003],[-10.409864200000001,81.5448863],[-10.421753699999998,81.5504837],[-10.4307088,81.5544575],[-10.4381361,81.55755500000001],[-10.454286300000001,81.5638416],[-10.464168399999998,81.5701053],[-10.477204200000001,81.5771658],[-10.4920199,81.584151],[-10.5085997,81.5910515],[-10.5269249,81.59785760000001],[-10.5469745,81.6045601],[-10.564060699999999,81.60986199999999],[-10.579419200000002,81.61441470000001],[-10.592103,81.61796450000001],[-10.615207,81.6240598],[-10.6275167,81.6271272],[-10.640208299999998,81.6301618],[-10.653278099999998,81.6331626],[-10.6667222,81.6361287],[-10.690720299999999,81.6411371],[-10.7136041,81.64637179999998],[-10.7355427,81.65106560000001],[-10.7557764,81.6551916],[-10.778986699999999,81.6596667],[-10.797375299999997,81.66303099999999],[-10.825046600000002,81.66784960000001],[-10.8402269,81.67037379999998],[-10.855706300000003,81.67286009999998],[-10.871480500000002,81.67530779999997],[-10.887545300000001,81.67771629999999],[-10.903896000000001,81.68008479999999],[-10.920528099999999,81.68241249999998],[-10.941395299999998,81.68522490000001],[-10.966123399999999,81.68843079999998],[-10.9755757,81.6895967],[-10.993024,81.6920998],[-11.023314699999998,81.69622860000001],[-11.057042200000001,81.7005793],[-11.079301899999999,81.7033679],[-11.101923199999998,81.706079],[-11.123200599999999,81.710578],[-11.138572699999997,81.71368360000002],[-11.154365299999998,81.71674560000001],[-11.1705727,81.71976300000001],[-11.1871892,81.72273449999999],[-11.204208999999999,81.72565900000001],[-11.221625999999999,81.72853549999999],[-11.2394338,81.7313627],[-11.257626,81.73413970000001],[-11.2768446,81.73697849999999],[-11.3085891,81.74142860000002],[-11.3248408,81.7435975],[-11.351189300000001,81.74699620000001],[-11.3663769,81.74945720000001],[-11.373476900000002,81.7505793],[-11.3736214,81.75055990000001],[-11.3838034,81.7521941],[-11.3960334,81.75465220000001],[-11.4093943,81.75722820000001],[-11.436281399999999,81.76218779999999],[-11.455150600000001,81.7655127],[-11.475683600000002,81.76899],[-11.501446600000001,81.77317289999999],[-11.5296454,81.7775395],[-11.547565399999998,81.7806981],[-11.5627277,81.7832628],[-11.5802667,81.7861213],[-11.610051599999998,81.79072950000001],[-11.6404474,81.7951915],[-11.6652667,81.7986365],[-11.6906966,81.8019912],[-11.716721299999998,81.8052535],[-11.743324699999997,81.80842129999999],[-11.7704903,81.8114925],[-11.7906816,81.81367390000001],[-11.8328228,81.81796910000001],[-11.8731857,81.8218152],[-11.914496900000001,81.82545609999998],[-11.956705200000002,81.82888699999998],[-11.9997576,81.8321037],[-12.0436003,81.83510199999999],[-12.082895500000001,81.83754920000001],[-12.1008435,81.84065460000002],[-12.1132928,81.8427339],[-12.146391499999998,81.84816360000002],[-12.166208899999999,81.8512865],[-12.1762959,81.85282529999999],[-12.176535600000001,81.85279259999999],[-12.201818299999998,81.8566742],[-12.221404399999999,81.8595682],[-12.236370099999997,81.8617013],[-12.273255899999999,81.8668198],[-12.293068199999999,81.86948109999999],[-12.313254,81.87208659999999],[-12.320257999999999,81.87291069999999],[-12.3429877,81.87580289999998],[-12.367282200000002,81.87876449999999],[-12.4046333,81.88305609999999],[-12.4430364,81.887162],[-12.4611166,81.88902490000001],[-12.5029953,81.8931749],[-12.5459521,81.89710420000002],[-12.589928699999998,81.9008073],[-12.634865299999998,81.90427910000001],[-12.6807006,81.90751470000002],[-12.748880599999998,81.9151776],[-16.7903531,82.28402190000001],[-18.3476106,82.6694148],[-18.35851,82.67340729999998],[-18.368612399999996,82.67687589999998],[-18.401972100000002,82.6874917],[-18.419546399999998,82.69280719999999],[-18.446099399999998,82.7003346],[-18.4642837,82.7052661],[-18.4968261,82.71364590000002],[-18.509863400000004,82.7168312],[-18.5455889,82.725226],[-18.560682899999996,82.7285876],[-18.598936,82.73677789999999],[-18.614759900000003,82.73999900000001],[-18.654579000000002,82.74781320000002],[-18.669953900000003,82.75069760000001],[-18.712863100000003,82.75848229999998],[-18.7301569,82.7614777],[-18.770854800000002,82.7683062],[-18.7838899,82.77129380000001],[-18.802726499999995,82.77537689999998],[-18.822346899999996,82.77940209999998],[-18.842741099999998,82.783367],[-18.870905600000004,82.7885702],[-18.888197899999998,82.79163030000001],[-18.90596,82.7946483],[-18.932199499999996,82.79889279999999],[-18.9549622,82.8043845],[-18.965945599999998,82.806884],[-18.9918929,82.8125148],[-19.0073838,82.81576729999999],[-19.0233791,82.81898199999999],[-19.039873500000002,82.82215769999999],[-19.056861500000004,82.825293],[-19.0743374,82.82838689999998],[-19.0922951,82.83143809999999],[-19.1107285,82.83444560000001],[-19.1296312,82.8374082],[-19.1640693,82.84263849999999],[-19.183887400000003,82.84550660000001],[-19.204154300000003,82.8483265],[-19.224862700000003,82.8510972],[-19.2460052,82.85381749999999],[-19.2675744,82.85648649999999],[-19.2892667,82.859068],[-19.303879100000003,82.8621714],[-19.337081700000006,82.8690253],[-19.3562052,82.87276889999998],[-19.3693354,82.8752346],[-19.395432499999995,82.8799847],[-19.4190171,82.88415040000001],[-19.443478799999998,82.88823889999999],[-19.468802199999995,82.8922476],[-19.481782099999997,82.89422110000001],[-19.511695700000004,82.89861560000001],[-19.545620499999995,82.9034081],[-19.5808106,82.9080618],[-19.617230400000004,82.9125717],[-19.654843200000002,82.91693300000001],[-19.6967807,82.92146300000002],[-19.719808000000004,82.92603009999999],[-19.7380249,82.9294417],[-19.7568224,82.932806],[-19.7761931,82.93612150000001],[-19.8156664,82.94251580000001],[-19.827338100000002,82.94436230000001],[-19.8512239,82.94800340000002],[-19.8758223,82.95157350000001],[-19.90112,82.9550706],[-19.949235199999997,82.9614123],[-19.9809572,82.965393],[-20.002622799999994,82.96798480000001],[-20.0246937,82.9705258],[-20.073188000000002,82.9759589],[-20.0974675,82.97855109999999],[-20.1261598,82.9814812],[-20.178857900000004,82.98663400000001],[-20.206011999999998,82.9891764],[-20.2336154,82.99164730000001],[-20.2616555,82.99404550000001],[-20.327291300000002,82.9993755],[-20.352638799999998,83.00132060000001],[-20.3782878,83.0032075],[-20.404229299999997,83.0050356],[-20.430454100000002,83.0068041],[-20.4515337,83.0081631],[-20.464729399999996,83.0091308],[-23.141579,83.36334709999998],[-24.0084791,83.5099441],[-24.0161269,83.51121210000001],[-24.044242799999996,83.516387],[-24.0762935,83.5219555],[-24.1004036,83.5259444],[-24.133554100000005,83.53119500000001],[-24.172232799999996,83.5369673],[-24.2026506,83.54130140000001],[-24.234163100000004,83.54553729999999],[-24.2343444,83.54551920000002],[-24.2563116,83.5484193],[-24.274881000000004,83.5507659],[-24.2976818,83.5540808],[-24.317929600000003,83.55689879999998],[-24.3386471,83.5596743],[-24.359827600000003,83.5624064],[-24.413047199999998,83.56893149999999],[-24.443788499999997,83.57252009999999],[-24.475352599999997,83.5760198],[-24.5230563,83.5810897],[-24.566512699999997,83.58549869999999],[-24.620773,83.5907509],[-24.646882400000003,83.59319140000001],[-24.7175415,83.5995708],[-24.7818983,83.60509279999998],[-24.8096039,83.60739819999999],[-24.828236899999997,83.60942960000001],[-24.8524251,83.6119706],[-24.876555200000002,83.61441460000002],[-24.9073358,83.61743009999999],[-24.954702199999996,83.62180129999999],[-24.989848199999997,83.6248457],[-25.013254500000002,83.62711960000001],[-25.0395623,83.6295746],[-25.0611986,83.63177099999999],[-25.088229199999994,83.63440940000001],[-25.1259024,83.63794370000001],[-25.160341199999998,83.64104400000001],[-25.205853400000002,83.64492480000001],[-25.2355687,83.6473749],[-25.288179499999995,83.651483],[-25.3203453,83.6539037],[-25.3311765,83.6546931],[-25.331349499999998,83.6546629],[-25.3674094,83.6573042],[-25.395867600000003,83.6592841],[-25.450131199999998,83.66292370000001],[-25.500196199999998,83.66608049999999],[-25.522733099999996,83.6676348],[-25.574172100000002,83.67288909999998],[-25.6242373,83.67760829999999],[-25.675900400000003,83.68211889999999],[-25.718402599999997,83.68559839999999],[-25.7575126,83.6886132],[-25.7973669,83.69151090000001],[-25.8379368,83.69428930000001],[-25.8791927,83.6969462],[-25.9211047,83.6994797],[-25.963641999999993,83.7018879],[-26.0123181,83.7044521],[-26.0618708,83.7068743],[-26.105115700000002,83.7101389],[-26.149835000000003,83.7133875],[-26.1964665,83.7166375],[-26.2292713,83.71881900000001],[-26.2734633,83.72161900000002],[-26.302723799999995,83.72339099999999],[-26.347189,83.72593529999999],[-26.386491499999998,83.72804409999999],[-26.443192699999997,83.7308972],[-26.500802,83.733531],[-26.559247199999998,83.735942],[-26.618454900000003,83.7381273],[-26.678350400000003,83.74008390000002],[-26.738857900000003,83.74180940000002],[-26.7546703,83.74219590000001],[-26.807275700000005,83.74411030000002],[-26.917103700000002,83.74786420000002],[-26.9760775,83.7497389],[-27.1037297,83.7535735],[-27.150058100000006,83.7548356],[-27.1919235,83.75586729999999],[-27.2008596,83.7563662],[-30.116201500000003,83.8660112],[-30.163931100000003,83.8675072],[-30.172396199999998,83.86782470000001],[-30.200236799999995,83.8686451],[-30.285398599999997,83.87084219999998],[-30.3714829,83.87259709999998],[-30.458282999999998,83.8739056],[-30.545589799999995,83.8747646],[-30.6331928,83.87517199999998],[-30.7208805,83.87512679999999],[-30.8084413,83.8746291],[-33.461816999999996,83.8596212],[-33.9481645,83.85788779999999],[-34.0066943,83.8575501],[-34.045773800000006,83.85721090000001],[-34.078213600000005,83.8568598],[-34.1105869,83.85644609999999],[-34.142882900000004,83.85596999999999],[-34.17509080000001,83.85543159999999],[-34.207199700000004,83.85483119999999],[-35.9292941,83.82376509999999],[-37.27813230000002,83.79833699999999],[-37.3343826,83.7970981],[-37.362358400000005,83.7964058],[-37.3902248,83.79566510000001],[-37.4456,83.79403960000002],[-37.5004501,83.79222330000002],[-39.215331500000005,83.7350427],[-39.23589890000001,83.7338745],[-39.259554900000005,83.7328191],[-39.304190399999996,83.73116720000002],[-39.3483966,83.7293866],[-39.3921417,83.7274784],[-39.4353945,83.7254442],[-39.468819200000006,83.7237684],[-39.520300600000006,83.72100350000001],[-39.5638514,83.71851020000001],[-39.599304800000006,83.7163553],[-39.63428699999999,83.71411250000001],[-39.66877980000001,83.7117827],[-39.70276530000001,83.7093674],[-39.736226,83.7068678],[-39.7556092,83.70536229999999],[-39.80150439999999,83.70162090000002],[-39.826788,83.6994675],[-39.8789249,83.6948157],[-39.9290242,83.69006209999999],[-39.9494038,83.68843769999998],[-40.736048600000004,83.61316090000001],[-44.4327656,83.42022080000001],[-44.887259699999994,83.40209540000001],[-44.93843090000001,83.39991540000001],[-44.97762749999999,83.3980965],[-44.99988749999999,83.3970043],[-45.043977,83.39471040000001],[-45.6348099,83.3619453],[-45.6722485,83.3597691],[-45.6907844,83.3586407],[-45.727475000000005,83.35630429999999],[-45.745624,83.35509669999999],[-45.7815154,83.3526034],[-47.1238547,83.25861440000001],[-47.1609205,83.2558492],[-47.19733490000001,83.2529698],[-47.21529,83.251488],[-47.2506802,83.2484412],[-48.289195600000006,83.15507159999999],[-49.831264899999994,83.01363620000001],[-51.373310100000005,82.94145130000001],[-51.42810020000001,82.93860370000002],[-51.4819588,82.9355051],[-51.534809599999996,82.93216020000001],[-51.5865775,82.9285736],[-51.6371898,82.92475060000001],[-51.686575500000004,82.92069670000001],[-51.7346659,82.9164178],[-51.7813942,82.91191980000002],[-55.9524498,82.51564570000001],[-56.17684739999999,82.50452800000001],[-56.215965600000004,82.50239599999999],[-56.254593,82.50012000000001],[-56.29269830000001,82.497702],[-56.311545499999994,82.4964403],[-57.3760395,82.42513709999999],[-57.3764902,82.42526340000002],[-58.151212900000004,82.3766664],[-58.1620714,82.37577679999997],[-58.208805500000004,82.3725199],[-58.2271246,82.37117749999999],[-58.254322900000005,82.36909940000001],[-58.29604510000001,82.3657459],[-58.3300401,82.36283829999998],[-58.35105439999999,82.36122390000003],[-58.3741598,82.35937249999998],[-58.402954900000005,82.35694699999999],[-58.4295837,82.35573159999998],[-58.466253200000004,82.3548446],[-58.5107853,82.3536527],[-58.52893000000001,82.3532557],[-58.54617590000001,82.35275449999999],[-58.6739255,82.3483224],[-58.77535200000001,82.3444468],[-58.8027862,82.3433453],[-58.9029996,82.33914829999999],[-59.014746499999994,82.3340901],[-59.09839320000001,82.32988379999999],[-59.13128739999999,82.328155],[-59.16385090000001,82.3263204],[-59.1855041,82.32503069999999],[-59.213292900000006,82.3232906],[-59.232643100000004,82.32241279999998],[-59.25456749999999,82.32173869999998],[-59.280272200000006,82.32088239999999],[-59.3058533,82.31996370000002],[-59.3313021,82.3189831],[-59.356609999999996,82.31794090000001],[-59.381768599999994,82.31683729999999],[-59.406769499999996,82.3156729],[-59.4316043,82.3144479],[-59.46225080000001,82.3128627],[-59.485472800000004,82.311592],[-59.508524,82.3102681],[-59.5313976,82.30889129999998],[-59.55408659999999,82.307462],[-59.582616800000004,82.30468809999999],[-59.62633560000001,82.2996308],[-59.62675000000001,82.29955560000002],[-59.6364886,82.2974722],[-59.646222200000004,82.29538889999999],[-59.6646419,82.29237529999999],[-59.683047499999994,82.2893611],[-59.70143890000001,82.28634609999999],[-59.719815800000006,82.28332999999999],[-59.73817860000001,82.2803133],[-59.756526900000004,82.2772961],[-59.774861099999995,82.2742778],[-59.7910625,82.2708669],[-59.80724939999999,82.26745560000002],[-59.8234222,82.26404330000001],[-59.8395811,82.26063060000001],[-59.8557256,82.25721720000001],[-59.8718558,82.2538033],[-59.8879722,82.25038889999999],[-59.899905600000004,82.2467483],[-59.91182779999999,82.24310720000001],[-59.92373860000001,82.2394658],[-59.935638600000004,82.23582420000001],[-59.94752749999999,82.2321822],[-59.9594053,82.22854],[-59.9712719,82.2248975],[-59.983127499999995,82.22125440000002],[-59.99497220000001,82.21761110000001],[-60.0169403,82.21426830000001],[-60.038889399999995,82.21092440000002],[-60.06082,82.20757920000001],[-60.082731700000004,82.20423310000001],[-60.104624699999995,82.2008856],[-60.126499200000005,82.1975372],[-60.14835500000001,82.1941875],[-60.17019220000001,82.1908369],[-60.19201060000001,82.187485],[-60.2138106,82.1841322],[-60.23559190000001,82.18077809999997],[-60.2573547,82.17742279999999],[-60.27909890000001,82.1740667],[-60.30082469999999,82.17070919999999],[-60.32253190000001,82.1673506],[-60.34422059999999,82.16399109999999],[-60.3658908,82.1606303],[-60.387542499999995,82.1572683],[-60.40917580000001,82.1539056],[-60.430790800000004,82.1505414],[-60.45238749999999,82.1471764],[-60.4739656,82.14381],[-60.49552530000001,82.14044279999999],[-60.517066699999994,82.1370742],[-60.5385897,82.1337047],[-60.5600944,82.1303339],[-60.581581099999994,82.1269622],[-60.6030492,82.1235894],[-60.6244992,82.12021560000001],[-60.64593080000001,82.1168406],[-60.6673442,82.11346440000001],[-60.6887394,82.1100872],[-60.710116400000004,82.10670889999999],[-60.73147530000001,82.1033294],[-60.752816100000004,82.09994920000001],[-60.77413860000001,82.0965675],[-60.79544310000001,82.093185],[-60.81672939999999,82.08980109999999],[-60.8379978,82.0864164],[-60.85924779999999,82.0830306],[-60.88047999999999,82.07964360000001],[-60.901694199999994,82.07625560000001],[-60.92289,82.07286669999999],[-60.944068099999996,82.0694764],[-60.96522830000001,82.0660853],[-60.986370300000004,82.0626931],[-61.00749439999999,82.05929970000001],[-61.02860080000001,82.05590529999999],[-61.049689199999996,82.0525097],[-61.0707594,82.04911330000002],[-61.09181220000001,82.04571560000001],[-61.1128469,82.0423169],[-61.1338636,82.0389172],[-61.1548628,82.0355164],[-61.175843900000004,82.03211470000001],[-61.1968072,82.02871169999999],[-61.2177531,82.02530779999998],[-61.238680800000004,82.02190279999999],[-61.259590800000005,82.0184967],[-61.2804833,82.0150897],[-61.3013581,82.01168170000001],[-61.32221500000001,82.00827249999999],[-61.34305439999999,82.0048622],[-61.3638761,82.0014508],[-61.38468029999999,81.9980386],[-61.4054667,81.99462530000002],[-61.426235600000005,81.99121080000002],[-61.4469867,81.9877953],[-61.4677203,81.9843789],[-61.4884364,81.98096140000001],[-61.50913500000001,81.9775428],[-61.529816100000005,81.97412330000002],[-61.5504797,81.97070279999998],[-61.571125800000004,81.96728110000001],[-61.5917544,81.9638583],[-61.612365600000004,81.96043470000001],[-61.632959400000004,81.95701000000001],[-61.65353580000001,81.95358420000001],[-61.6740947,81.9501575],[-61.694636100000004,81.94672970000002],[-61.71516030000001,81.9433008],[-61.7356672,81.93987109999999],[-61.756156700000005,81.9364403],[-61.776628900000006,81.9330083],[-61.797083900000004,81.9295753],[-61.81752139999999,81.9261414],[-61.837941699999995,81.92270669999999],[-61.858344699999996,81.91927060000002],[-61.87873080000001,81.91583360000001],[-61.8990994,81.9123958],[-61.9194508,81.9089567],[-61.939785300000004,81.90551690000001],[-61.96010220000001,81.90207579999999],[-61.9804022,81.89863390000001],[-62.000685,81.8951908],[-62.02095080000001,81.8917469],[-62.041199399999996,81.88830189999999],[-62.0614311,81.8848558],[-62.081645599999995,81.8814089],[-62.101843099999996,81.8779611],[-62.122023600000006,81.8745119],[-62.142186900000006,81.8710619],[-62.162333300000014,81.8676111],[-62.1774006,81.86370889999999],[-62.19245330000001,81.85980609999999],[-62.2074919,81.85590279999998],[-62.222516100000014,81.8519986],[-62.237526100000004,81.8480942],[-62.2525217,81.84418920000002],[-62.267503100000006,81.84028360000002],[-62.28247030000001,81.83637749999998],[-62.2974231,81.83247079999998],[-62.3123619,81.82856360000001],[-62.32728639999999,81.8246558],[-62.342196900000005,81.82074749999998],[-62.35709309999999,81.8168386],[-62.3719753,81.81292920000001],[-62.386843299999995,81.80901920000001],[-62.401697199999994,81.8051086],[-62.416536900000004,81.8011975],[-62.4313628,81.79728610000001],[-62.4461744,81.7933739],[-62.46097220000001,81.7894611],[-62.475756100000005,81.78554809999999],[-62.49052580000001,81.78163420000001],[-62.5052817,81.7777197],[-62.5200236,81.773805],[-62.5347514,81.76988970000001],[-62.5494656,81.76597360000001],[-62.5641656,81.7620572],[-62.578851900000004,81.7581403],[-62.593524200000004,81.75422280000001],[-62.60818280000001,81.7503047],[-62.6228275,81.7463861],[-62.637458300000006,81.74246690000001],[-62.6520756,81.7385472],[-62.66667890000001,81.73462720000002],[-62.681268599999996,81.7307064],[-62.6958444,81.72678529999999],[-62.7104067,81.7228633],[-62.72495530000001,81.7189411],[-62.73949,81.7150183],[-62.7540111,81.71109500000001],[-62.768518600000014,81.7071711],[-62.78301280000001,81.70324670000001],[-62.797493100000004,81.6993217],[-62.811959699999996,81.69539639999999],[-62.82641280000001,81.69147029999999],[-62.8408522,81.68754390000001],[-62.8552783,81.6836169],[-62.8696908,81.6796894],[-62.88408969999999,81.67576139999998],[-62.89847530000001,81.67183279999998],[-62.91284749999999,81.66790360000002],[-62.9272061,81.6639739],[-62.9415511,81.6600439],[-62.9558828,81.6561133],[-62.97020139999999,81.65218189999999],[-62.9845061,81.6482503],[-62.998797800000006,81.6443183],[-63.0130761,81.6403856],[-63.0273411,81.6364522],[-63.0415925,81.6325186],[-63.0558308,81.6285844],[-63.070055800000006,81.6246497],[-63.08426779999999,81.6207144],[-63.0984661,81.61677859999999],[-63.1126514,81.61284249999999],[-63.1268236,81.6089056],[-63.1409825,81.6049683],[-63.155128100000006,81.6010306],[-63.1692606,81.5970922],[-63.18338,81.59315330000001],[-63.197486399999995,81.58921420000001],[-63.2115794,81.5852744],[-63.225659400000005,81.5813342],[-63.2397264,81.5773933],[-63.2537803,81.5734519],[-63.267821399999995,81.56951000000001],[-63.281849199999996,81.5655678],[-63.29586390000001,81.56162500000002],[-63.3098658,81.5576817],[-63.3238547,81.55373809999998],[-63.3378306,81.54979360000002],[-63.35179359999999,81.5458489],[-63.3657436,81.54190360000003],[-63.37968059999999,81.5379578],[-63.393605,81.53401140000001],[-63.4075161,81.53006470000001],[-63.4214147,81.5261175],[-63.43530030000001,81.5221697],[-63.4491731,81.51822140000002],[-63.463033100000004,81.5142728],[-63.4768803,81.51032360000002],[-63.490714700000005,81.5063739],[-63.5045364,81.50242360000001],[-63.51834530000001,81.4984731],[-63.5321414,81.49452170000002],[-63.5459247,81.49057],[-63.5596956,81.4866181],[-63.5734536,81.48266530000001],[-63.587198900000004,81.47871219999999],[-63.600931700000004,81.4747586],[-63.6146519,81.4708044],[-63.62835940000001,81.46685000000001],[-63.642054200000004,81.462895],[-63.6557364,81.4589394],[-63.6694061,81.45498330000001],[-63.6830633,81.45102690000002],[-63.69670810000001,81.44707000000001],[-63.71034,81.44311250000001],[-63.72395970000001,81.43915440000002],[-63.7375667,81.4351961],[-63.751161399999994,81.43123720000001],[-63.7647436,81.4272778],[-63.778313300000015,81.42331809999999],[-63.7918706,81.4193578],[-63.80541530000001,81.4153969],[-63.8189478,81.4114358],[-63.832467799999996,81.40747390000001],[-63.8459756,81.40351190000001],[-63.85947109999999,81.39954920000001],[-63.872953900000006,81.39558609999999],[-63.88642469999999,81.39162250000001],[-63.8998831,81.3876583],[-63.9133292,81.38369390000001],[-63.9267631,81.37972889999999],[-63.940184699999996,81.37576329999999],[-63.9535939,81.37179749999999],[-63.9669911,81.3678308],[-63.9803761,81.36386420000001],[-63.99374890000001,81.3598967],[-64.00710920000002,81.3559289],[-64.02045779999999,81.35196060000001],[-64.0337939,81.34799190000001],[-64.0471181,81.3440228],[-64.06043,81.3400531],[-64.0737297,81.3360831],[-64.0870175,81.3321125],[-64.1002931,81.32814139999999],[-64.1135569,81.32417],[-64.12680829999998,81.32019809999998],[-64.14004809999999,81.31622560000002],[-64.1532756,81.3122528],[-64.16649109999999,81.3082794],[-64.1796944,81.3043056],[-64.1970922,81.3006886],[-64.21447560000001,81.29707060000001],[-64.23184470000001,81.29345190000001],[-64.24919940000002,81.28983249999999],[-64.26654,81.28621220000001],[-64.2838661,81.2825914],[-64.30117809999999,81.27896940000001],[-64.3184756,81.27534689999999],[-64.33575889999999,81.27172360000002],[-64.35302809999999,81.26809940000001],[-64.3702831,81.26447440000001],[-64.38752390000002,81.2608486],[-64.4047503,81.25722220000002],[-64.4219628,81.253595],[-64.43916080000001,81.24996690000002],[-64.456345,81.24633809999999],[-64.47351470000001,81.24270829999999],[-64.49067060000002,81.23907809999999],[-64.5078125,81.2354469],[-64.52494,81.23181500000001],[-64.54205360000002,81.22818219999999],[-64.5591531,81.2245489],[-64.5762386,81.22091470000001],[-64.59331,81.21727970000002],[-64.6103675,81.21364390000002],[-64.62741079999999,81.2100072],[-64.6444403,81.20636999999999],[-64.66145560000001,81.20273189999999],[-64.67845719999998,81.1990931],[-64.6954447,81.19545360000001],[-64.7124183,81.1918131],[-64.72937809999998,81.18817189999999],[-64.74632390000002,81.18453029999999],[-64.76325580000001,81.18088749999998],[-64.78017390000001,81.1772442],[-64.7970781,81.1736],[-64.81396860000001,81.169955],[-64.830845,81.1663094],[-64.8477078,81.1626631],[-64.86455670000001,81.15901579999999],[-64.8813919,81.15536809999998],[-64.89821330000001,81.1517192],[-64.91502080000001,81.14806970000001],[-64.93181470000002,81.14441970000001],[-64.94859500000001,81.1407686],[-64.9653614,81.13711690000001],[-64.98211420000001,81.1334647],[-64.9988531,81.1298114],[-65.0155786,81.12615749999999],[-65.0322903,81.12250279999998],[-65.04898829999999,81.11884749999999],[-65.06567279999999,81.1151914],[-65.0823436,81.11153440000001],[-65.0990008,81.1078769],[-65.11564440000001,81.1042183],[-65.1322747,81.10055940000001],[-65.14889109999999,81.09689940000001],[-65.1654942,81.0932389],[-65.1820836,81.08957749999999],[-65.19865940000001,81.0859156],[-65.21522190000002,81.08225279999999],[-65.23177079999999,81.0785892],[-65.2483064,81.07492500000001],[-65.2648283,81.07126000000001],[-65.2813369,81.06759440000002],[-65.2978319,81.0639278],[-65.31431360000002,81.06026080000001],[-65.33078189999999,81.05659279999999],[-65.34723690000001,81.0529242],[-65.36367829999999,81.04925470000002],[-65.3801067,81.0455847],[-65.39652140000001,81.04191390000003],[-65.4129228,81.0382425],[-65.4293108,81.0345703],[-65.4456858,81.0308972],[-65.4620472,81.02722360000003],[-65.4783956,81.0235492],[-65.49473060000001,81.01987390000001],[-65.51105220000001,81.0161981],[-65.5273608,81.01252170000001],[-65.5436561,81.0088442],[-65.55993809999998,81.00516640000001],[-65.5762069,81.0014875],[-65.59246279999999,80.9978081],[-65.60870529999998,80.99412810000001],[-65.6249344,80.9904472],[-65.6411508,80.98676560000001],[-65.6573539,80.9830833],[-65.6735439,80.9794003],[-65.6897206,80.97571669999999],[-65.7058844,80.97203219999999],[-65.72203499999999,80.9683472],[-66.26666700000001,80.834722],[-66.39992120000001,80.82548329999999],[-66.40281370000001,80.82263629999998],[-66.4129331,80.8204499],[-66.4309061,80.81865460000002],[-66.44559170000001,80.8177809],[-66.4606722,80.81813009999999],[-66.47629330000001,80.8202856],[-67.118611,80.75],[-68.00000490000001,80.509303],[-68.333333,80.41666700000002],[-68.42322470000002,80.3618706],[-68.43030920000001,80.3575794],[-68.4373875,80.3532886],[-68.44445940000003,80.3489972],[-68.45152500000002,80.3447058],[-68.4585847,80.34041440000001],[-68.4656378,80.3361228],[-68.472685,80.33183109999999],[-68.4797258,80.3275392],[-68.48676060000001,80.3232469],[-68.49378920000001,80.318955],[-68.5008117,80.31466250000001],[-68.5078278,80.31036999999999],[-68.5148378,80.30607749999999],[-68.5218417,80.3017847],[-68.5288394,80.29749170000001],[-68.53583109999998,80.29319860000001],[-68.5428167,80.2889053],[-68.5497961,80.28461190000002],[-68.55676940000001,80.2803186],[-68.56373669999999,80.276025],[-68.57069779999999,80.27173109999998],[-68.5776528,80.2674372],[-68.58460170000001,80.26314310000001],[-68.59154470000001,80.25884889999999],[-68.5984814,80.25455440000002],[-68.60541219999999,80.25026000000001],[-68.61233689999999,80.24596560000002],[-68.61925560000002,80.24167060000002],[-68.62616829999999,80.2373758],[-68.63307499999999,80.2330808],[-68.6399756,80.2287856],[-68.64687029999999,80.2244903],[-68.6336578,80.1838197],[-68.63235479999999,80.18040799999999],[-68.63071049999999,80.17700049999999],[-68.6287256,80.17359839999999],[-68.62640109999998,80.1702026],[-68.62373799999997,80.166814],[-68.62073749999998,80.1634337],[-68.6174007,80.1600627],[-68.613729,80.15670179999998],[-68.5967839,80.1418882],[-68.58919470000001,80.13575269999998],[-68.585549,80.1330991],[-68.57203619999999,80.1244052],[-68.55627849999999,80.1158238],[-68.538313,80.10737209999998],[-68.5181812,80.09906670000001],[-68.4959281,80.09092440000002],[-68.47160300000002,80.08296109999999],[-68.44525890000001,80.07519249999999],[-68.25804409999999,80.0228252],[-69.1076303,79.3191077],[-69.2589219,79.18874199999998],[-69.26477809999999,79.1877251],[-69.276604,79.18593739999999],[-69.3026053,79.18173469999999],[-69.3278506,79.17737469999999],[-69.33830689999999,79.17544589999999],[-69.39736740000001,79.1676661],[-69.4243661,79.16398109999999],[-69.44918240000001,79.16036729999999],[-69.474152,79.1564954],[-69.49846470000001,79.15248029999998],[-69.52209769999999,79.1483257],[-69.54502900000001,79.1440358],[-69.56723720000001,79.13961450000001],[-69.58870189999999,79.13506629999999],[-69.6017169,79.1321691],[-69.62021370000001,79.129166],[-69.6457107,79.1247699],[-69.658163,79.12251289999999],[-69.6772943,79.1188796],[-69.68567749999998,79.11766420000002],[-69.70732060000002,79.1143477],[-69.72847999999999,79.11092330000001],[-69.74914100000001,79.1073933],[-69.76928900000001,79.10376029999999],[-69.79301970000002,79.0993611],[-69.80870019999999,79.0963602],[-70.55078979999999,78.94731590000002],[-70.629543,78.93492350000002],[-71.09792270000001,78.87433509999998],[-71.8706277,78.806647],[-71.8887037,78.8049848],[-71.90660420000002,78.80325360000002],[-71.93311100000001,78.80052900000001],[-72.60034199999998,78.72858879999998],[-72.619314,78.7273867],[-72.6495714,78.72530239999999],[-72.66461550000001,78.724186],[-72.7090672,78.72056440000001],[-72.752566,78.71653060000001],[-72.79501160000001,78.7120938],[-72.8363064,78.70726450000002],[-72.8601117,78.70416730000001],[-72.91511340000002,78.6978917],[-72.9377809,78.69524129999999],[-72.96497550000001,78.6919387],[-72.98928040000001,78.68878139999998],[-73.0386495,78.68171869999999],[-73.08570689999999,78.6740797],[-73.1302806,78.6658932],[-73.1722094,78.6571897],[-73.2113428,78.64800179999999],[-73.24754170000001,78.6383638],[-73.2806793,78.62831139999999],[-73.33414920000001,78.61095350000001],[-73.50148829999999,78.5553097],[-73.50955940000001,78.55113970000001],[-73.51762470000003,78.54696940000002],[-73.5256842,78.5427989],[-73.53373779999998,78.5386283],[-73.5417858,78.5344575],[-73.5498281,78.53028640000001],[-73.55786440000001,78.526115],[-73.565895,78.5219433],[-73.5739197,78.5177717],[-73.5819389,78.51359970000001],[-73.5899525,78.5094275],[-73.59796000000001,78.505255],[-73.6059619,78.5010822],[-73.61395809999999,78.49690940000002],[-73.61495390000002,78.4963895],[-73.67060779999998,78.4854614],[-73.6722217,78.48514420000001],[-73.6877642,78.4820867],[-73.70329860000001,78.4790286],[-73.71662670000002,78.47640279999999],[-73.71748500000001,78.47594079999999],[-73.7252628,78.4717522],[-73.733035,78.46756330000002],[-73.7408017,78.4633744],[-73.7485628,78.4591853],[-73.75631829999999,78.4549958],[-73.7640681,78.4508064],[-73.7718125,78.44661640000002],[-73.7795514,78.44242640000002],[-73.78728470000001,78.4382361],[-73.7950125,78.4340458],[-73.80273469999999,78.4298553],[-73.8104517,78.42566440000002],[-73.8181628,78.4214733],[-73.82586859999999,78.41728190000002],[-73.8335686,78.41309060000002],[-73.84126330000002,78.4088989],[-73.84895279999999,78.40470690000001],[-73.8566364,78.40051500000001],[-73.86431470000001,78.3963228],[-73.87198749999999,78.39213029999999],[-73.8796547,78.38793749999999],[-73.8873167,78.3837447],[-73.99462410000002,78.1938396],[-73.99759320000003,78.1875974],[-73.9989673,78.183665],[-74.000182,78.178564],[-74.00075869999999,78.17345829999998],[-74.00069760000001,78.16835129999998],[-73.99999990000002,78.1632462],[-73.99866660000002,78.15814649999999],[-73.99669940000003,78.1530554],[-73.67378979999998,77.42633699999999],[-73.6691979,77.41740020000002],[-73.6630527,77.40905550000001],[-73.6602877,77.4058275],[-73.656696,77.4020114],[-73.6482625,77.39415090000001],[-73.64039460000001,77.3878457],[-73.631594,77.38159990000001],[-73.62187119999999,77.37541999999999],[-73.611238,77.36931249999999],[-73.60178209999998,77.3643689],[-73.580826,77.35280629999998],[-73.5394905,77.3352364],[-73.49055070000001,77.31864],[-72.11150500000001,76.90074320000001],[-72.08237549999998,76.88693819999999],[-72.0871745,76.8875976],[-72.11126720000001,76.8906741],[-72.13578489999999,76.8935752],[-72.1607026,76.8962978],[-72.17471629999999,76.89776520000001],[-72.39970229999999,76.921748],[-72.41970520000001,76.9237982],[-72.4399333,76.9257336],[-72.4603737,76.92755300000002],[-72.48101330000001,76.9292551],[-72.5018389,76.93083879999999],[-72.52283689999999,76.9323031],[-72.5439941,76.93364720000001],[-72.56529660000001,76.93487],[-72.6279942,76.9382867],[-72.65507679999997,76.93965600000001],[-72.67483629999998,76.94052670000002],[-72.68662760000001,76.94099550000001],[-72.71029140000002,76.94182290000002],[-72.72215940000001,76.94218140000001],[-72.99649350000001,76.9501814],[-73.02868849999999,76.95096550000001],[-73.0609918,76.9514789],[-73.09335829999999,76.95172090000001],[-73.12574249999997,76.9516911],[-73.15809899999999,76.9513895],[-73.19038249999998,76.9508167],[-73.22254769999999,76.94997340000002],[-73.25454950000001,76.9488608],[-73.3820274,76.94391080000001],[-73.3968302,76.94323610000001],[-73.4093031,76.94274300000001],[-73.4293505,76.94175380000001],[-73.47606320000001,76.9390078],[-73.5220204,76.9356812],[-73.5670798,76.9317845],[-73.6111018,76.92732970000002],[-73.6539509,76.92233069999999],[-73.69549529999999,76.91680300000002],[-73.735608,76.91076380000001],[-73.74687360000001,76.90896390000002],[-73.7692384,76.9052671],[-73.77957479999999,76.9034729],[-73.81109450000001,76.89764170000001],[-73.84136450000001,76.89148320000001],[-73.87031999999999,76.88501109999999],[-73.89789920000001,76.87823949999999],[-73.92404340000002,76.8711834],[-73.9486978,76.86385829999999],[-73.9749517,76.85519699999999],[-73.98976400000001,76.8499071],[-73.9994874,76.84621990000002],[-74.0218684,76.836958],[-74.0420353,76.8274376],[-74.0599352,76.81768620000001],[-74.07552199999999,76.8077314],[-74.08875649999999,76.79760160000002],[-74.09960660000002,76.78732560000002],[-74.10804689999999,76.77693249999999],[-74.1127131,76.7701641],[-74.11513209999998,76.76624970000002],[-74.117828,76.76101480000001],[-74.1204143,76.75534879999998],[-74.1211302,76.7531517],[-74.12283109999997,76.74910160000002],[-74.1242501,76.7435779],[-74.12504159999999,76.7317756],[-74.12279399999998,76.71998330000001],[-74.11752300000002,76.7082419],[-74.10925470000001,76.6965925],[-74.09802560000001,76.68507539999999],[-74.08388199999999,76.67373049999998],[-74.06688,76.6625969],[-74.04852420000002,76.65161470000001],[-74.0383594,76.64579889999999],[-74.0341477,76.6435319],[-74.0182715,76.63560109999999],[-74.0009282,76.62783729999998],[-73.9821528,76.6202552],[-73.96198270000001,76.61286879999999],[-73.9404581,76.60569199999999],[-73.91762120000003,76.59873819999999],[-73.89351660000001,76.59202040000001],[-73.74625350000002,76.55277289999998],[-73.7282505,76.54810390000002],[-73.7033927,76.5421063],[-73.68075859999999,76.53705070000001],[-73.65736199999999,76.5321889],[-73.6332341,76.52752740000001],[-73.6084066,76.52307219999999],[-73.5829124,76.5188289],[-73.55678499999999,76.51480310000001],[-73.52909629999999,76.51070320000001],[-73.51992450000002,76.5094272],[-73.5061831,76.50742300000002],[-73.48713330000001,76.50486500000001],[-73.44384420000002,76.4995878],[-73.3993665,76.4948881],[-73.35384049999999,76.4907807],[-73.3074095,76.4872785],[-73.26021940000003,76.4843923],[-73.212418,76.4821312],[-73.16415490000001,76.4805022],[-73.1357659,76.47973549999999],[-73.113883,76.47920900000001],[-73.09195060000002,76.47881249999999],[-73.06998279999999,76.4785464],[-73.04799360000003,76.4784107],[-72.89265990000001,76.47796070000001],[-72.8635514,76.4779819],[-72.8344621,76.4782317],[-72.8054244,76.47870979999999],[-72.77647049999999,76.4794158],[-72.74763260000002,76.48034879999999],[-72.71894300000001,76.4815078],[-72.6904335,76.4828915],[-72.66213599999999,76.4844983],[-72.30156570000001,76.5067316],[-72.18131779999999,76.5170331],[-72.0377848,76.53558360000001],[-71.94359140000002,76.55071879999998],[-71.8766074,76.5667998],[-71.85425340000002,76.5725494],[-71.84763970000002,76.574353],[-71.8364597,76.5772682],[-71.82110370000001,76.58158960000002],[-71.79028420000002,76.5910673],[-71.76190620000001,76.6009499],[-71.736073,76.61120330000001],[-71.7128797,76.62179199999999],[-71.6924129,76.6326794],[-71.67475049999999,76.6438275],[-71.6599609,76.65519769999999],[-71.65082809999998,76.6634295],[-71.640755,76.67588659999998],[-70.97232829999999,76.35008479999999],[-70.95923640000001,76.34452980000002],[-70.9535824,76.34137879999999],[-70.94770300000002,76.3382509],[-70.93994140000001,76.334322],[-70.9281837,76.3286993],[-70.90772030000001,76.3198364],[-70.87066,76.30601809999999],[-70.8290179,76.2929579],[-70.783079,76.2807414],[-70.73315420000002,76.2694483],[-70.67957799999998,76.2591522],[-70.64533629999998,76.25359360000002],[-69.27161530000001,75.93180260000001],[-69.2552842,75.9281748],[-69.21859450000001,75.9206869],[-69.180209,75.91372620000001],[-69.1402565,75.90731570000001],[-69.09887029999999,75.9014764],[-69.05618799999999,75.89622740000001],[-69.0123508,75.8915861],[-68.96750340000003,75.8875675],[-66.7636081,75.71733590000001],[-66.6766504,75.7117724],[-66.60677729999998,75.708361],[-66.57976879999998,75.707436],[-66.55265209999999,75.7067332],[-66.5254569,75.70625350000002],[-66.49821270000001,75.7059972],[-66.47094940000001,75.7059648],[-66.44369670000002,75.70615620000001],[-66.41648420000001,75.7065712],[-66.38680599999999,75.70727960000002],[-66.3616061,75.7080744],[-66.34796070000002,75.708587],[-66.309409,75.7103513],[-66.271238,75.71256860000001],[-66.2620731,75.71321650000002],[-66.2499061,75.71400310000001],[-65.12608839999999,75.74927000000001],[-64.3849817,75.67895719999999],[-60.734055500000004,75.32758709999999],[-58.69894420000001,74.5951001],[-58.5690944,74.0239195],[-58.5680877,74.0205919],[-58.5660078,74.01516320000002],[-58.56317520000001,74.00935009999999],[-58.561527399999996,74.00645279999999],[-58.550510300000006,73.9893968],[-58.5477586,73.9853976],[-58.543081199999996,73.97942990000001],[-58.5395984,73.9754744],[-58.5377482,73.97350420000001],[-57.589821199999996,72.98392410000001],[-57.5848989,72.97874749999998],[-57.5813555,72.97531879999998],[-57.5756504,72.9702118],[-57.27397630000001,72.71217370000001],[-56.6773345,72.0991316],[-56.4896439,71.6635809],[-56.48906709999999,71.660794],[-56.4847073,71.65200999999999],[-56.479114,71.64329550000001],[-56.472300000000004,71.63466790000001],[-56.4642802,71.62614409999999],[-56.4550721,71.61774079999999],[-56.4446953,71.60947469999999],[-56.4331717,71.6013617],[-56.4295615,71.59900320000001],[-56.4189051,71.59245390000001],[-56.413316900000005,71.5892011],[-56.4075408,71.58598149999999],[-56.40326739999999,71.5836983],[-56.1140622,71.4085757],[-55.63531470000001,70.41993980000001],[-55.5069935,69.8391407],[-55.547912600000004,69.73709550000001],[-55.5490483,69.73352070000001],[-55.5501037,69.73087],[-55.5513668,69.7262223],[-55.5530943,69.71529980000001],[-55.5530928,69.70436090000001],[-55.551364899999996,69.69343839999999],[-55.547918300000006,69.68256509999999],[-55.5427661,69.6717736],[-55.53592630000001,69.661096],[-55.5274217,69.6505643],[-55.506962800000004,69.6276486],[-55.501353300000005,69.62168879999999],[-55.494708200000005,69.61533349999999],[-55.48772739999999,69.6092865],[-55.4801879,69.6033219],[-55.472098100000004,69.5974458],[-55.463466999999994,69.59166460000003],[-55.454304099999995,69.58598409999999],[-55.44461939999999,69.5804105],[-55.306949599999996,69.50404660000001],[-55.29846680000001,69.49946040000002],[-55.28963230000001,69.49495680000001],[-55.26337690000001,69.48238549999999],[-55.255927,69.4789114],[-55.2443566,69.47380829999999],[-55.23232280000001,69.4688395],[-54.76295160000001,69.28207069999999],[-54.304803199999995,68.2804435],[-54.49270070000001,67.81722230000001],[-54.494438900000006,67.8124504],[-54.495871,67.80766400000002],[-54.4969965,67.8028659],[-54.497444099999996,67.80046340000001],[-54.63872920000001,67.0070924],[-54.63955570000001,67.0008291],[-54.6398548,66.99577819999999],[-54.6398647,66.99200350000001],[-54.639692100000005,66.98822940000002],[-54.639337000000005,66.98445720000001],[-54.63879980000001,66.9806884],[-54.637692900000005,66.97512420000001],[-54.636417300000005,66.96999240000001],[-54.6348039,66.9648751],[-54.633541300000005,66.96147330000001],[-54.4127419,66.39989460000001],[-54.4109518,66.39555340000001],[-54.40782099999999,66.3890737],[-54.404158900000006,66.382639],[-54.277887799999995,66.1764796],[-54.2745646,66.17130689999999],[-54.270901300000006,66.16617179999999],[-54.268271500000004,66.16277119999998],[-54.15064039999999,66.01529360000002],[-54.13951070000001,66.0016871],[-53.72013750000001,65.44789950000002],[-53.71679290000001,65.44355920000002],[-53.713211900000005,65.43925160000002],[-52.7900894,64.3701208],[-52.640743900000004,63.9696538],[-52.638262700000006,63.963510600000006],[-52.635346600000005,63.95740439999999],[-52.631998700000004,63.95134109999999],[-52.62822250000001,63.9453266],[-52.624022000000004,63.9393667],[-52.619401499999995,63.9334673],[-52.6143658,63.927634],[-52.60891990000001,63.9218725],[-52.600678900000005,63.9135227],[-52.594596200000005,63.907620599999994],[-52.5880839,63.9018082],[-52.5811489,63.896091399999996],[-52.573798800000006,63.8904763],[-51.7767477,63.305744],[-51.5801984,63.067163300000004],[-51.5773584,63.06391080000001],[-51.5744458,63.060736600000006],[-51.5712409,63.0573789],[-51.56553260000001,63.05166549999999],[-51.559886799999994,63.0464396],[-51.5536702,63.04109139999999],[-51.5471016,63.035830700000005],[-51.5401871,63.0306622],[-51.53293320000001,63.02559070000001],[-51.52534670000001,63.0206207],[-51.51743449999999,63.015756800000005],[-51.358849299999996,62.92148769999999],[-50.946824299999996,62.614856499999995],[-50.7566568,62.397033300000004],[-50.752607399999995,62.39251600000001],[-50.750493999999996,62.3902749],[-50.746091,62.38582939999999],[-50.743802300000006,62.383625699999996],[-50.73905200000001,62.379258],[-50.650103900000005,62.300091699999996],[-50.194860999999996,61.84736739999999],[-50.191020900000005,61.843588],[-49.993678200000005,61.65784489999999],[-49.7482656,61.4317581],[-49.744487299999996,61.42833030000001],[-49.7405714,61.424938000000004],[-49.73651950000001,61.4215827],[-49.73233310000001,61.418265399999996],[-49.728013800000014,61.41498759999999],[-49.72356320000001,61.4117503],[-49.718983200000004,61.408554800000005],[-49.714275300000004,61.405402300000006],[-49.3107858,61.1413485],[-48.8752247,60.6861334],[-48.8732717,60.683233800000004],[-48.8709951,60.6802825],[-48.8688708,60.677344],[-48.86573370000001,60.6734621],[-48.85716739999999,60.6638965],[-48.8475969,60.6545627],[-48.83704899999999,60.6454862],[-48.82555320000001,60.6366916],[-48.8131413,60.62820270000001],[-48.7998478,60.620042600000005],[-48.78570920000001,60.612233200000006],[-48.73632020000001,60.58635030000001],[-48.7306895,60.5835296],[-48.7274491,60.581839099999996],[-48.7230806,60.57971800000001],[-48.70923270000001,60.573393900000006],[-48.6948064,60.5673916],[-48.67983280000001,60.561723900000004],[-48.6643441,60.5564028],[-48.648373600000006,60.551439599999995],[-48.631955600000005,60.5468451],[-48.61512510000001,60.542628900000004],[-48.57593930000001,60.5333945],[-48.565047,60.5310093],[-48.5540185,60.5287815],[-48.5428631,60.52671320000001],[-48.5372409,60.525739400000006],[-47.7413852,60.393596800000005],[-45.5722774,59.80718039999999],[-45.2166592,59.6807898],[-45.206417,59.6772406],[-45.20211960000001,59.675820800000004],[-45.1871617,59.6711808],[-45.1718146,59.66687890000001],[-45.15610830000001,59.66292330000001],[-45.140073300000005,59.6593219],[-45.12374080000001,59.65608149999999],[-45.1071426,59.6532084],[-45.09031100000001,59.650708300000005],[-44.12334920000001,59.52225850000001],[-44.120069300000004,59.5218736],[-44.111363399999995,59.520717600000005],[-44.09521300000001,59.5189564],[-44.066679300000004,59.5167034],[-44.0378993,59.5155115],[-44.0090252,59.515387],[-43.980209599999995,59.5163306],[-43.951605099999995,59.518337200000005],[-43.92336280000001,59.521396300000006],[-43.895632500000005,59.5254916],[-43.658667799999996,59.56550820000001],[-43.6469765,59.56757280000001],[-43.642029300000004,59.568509500000005],[-43.63381270000001,59.57015030000001],[-43.625669800000004,59.57188339999999],[-43.617604799999995,59.5737079],[-43.6096216,59.575623],[-43.6017243,59.577627799999995],[-43.59391660000001,59.5797212],[-43.4009776,59.633087399999994],[-43.400911900000004,59.6330254],[-42.9897901,59.7444082],[-42.9850161,59.7457846],[-42.9788972,59.7474436],[-42.968916500000006,59.7504262],[-42.948798100000005,59.757067799999994],[-42.92950830000001,59.764309100000006],[-42.9111177,59.77212380000001],[-42.8936938,59.780483399999994],[-42.8773008,59.7893575],[-42.861999,59.79871400000001],[-42.847845099999994,59.808518600000006],[-42.7180444,59.9044503],[-42.7111673,59.90968899999999],[-42.707996900000005,59.91223],[-42.7032442,59.9162051],[-42.69867580000001,59.920234300000004],[-42.6942941,59.924315500000006],[-42.690101600000006,59.928446300000004],[-42.6861005,59.9326247],[-42.6822931,59.936848399999995],[-42.676833900000005,59.943126],[-42.6718662,59.9492651],[-42.667306100000005,59.955483199999996],[-42.659068,59.967738600000004],[-42.655818200000006,59.972968300000005],[-42.652855200000005,59.9782406],[-42.58615030000001,60.108207],[-42.209701100000004,60.836423999999994],[-41.81986669999999,61.487455499999996],[-41.657250499999996,61.7647465],[-41.654568399999995,61.76983800000001],[-41.148361,62.787480599999995],[-40.830109900000004,62.991736100000004],[-40.8235426,62.996025700000004],[-40.817222799999996,63.0003916],[-40.811155,63.0048308],[-40.805343300000004,63.009340300000005],[-40.29223160000001,63.4205947],[-40.285597100000004,63.4245317],[-40.27693010000001,63.430050800000004],[-40.2686815,63.4356972],[-40.2608608,63.44146449999999],[-40.2534773,63.4473463],[-40.2465394,63.453335800000005],[-40.2400554,63.45942649999999],[-40.23403280000001,63.465611200000005],[-40.09517470000001,63.615073900000006],[-40.0914736,63.6191611],[-40.0879754,63.6232834],[-40.08468189999999,63.627439],[-40.081594599999995,63.6316259],[-40.07871520000001,63.6358418],[-40.0760452,63.640085],[-40.073585900000005,63.644353200000005],[-40.071338700000005,63.648644399999995],[-39.75513680000001,64.2841918],[-39.3390511,64.84920690000001],[-36.8786662,65.30762010000001],[-36.4857881,65.3694576],[-36.4773395,65.3708666],[-36.4717743,65.3717436],[-36.46503690000001,65.37291829999998],[-36.44468979999999,65.37677589999998],[-36.424790300000005,65.381022],[-36.4053811,65.38564769999999],[-36.3865039,65.3906431],[-36.3681994,65.3959975],[-36.3505069,65.40169940000003],[-36.33346469999999,65.4077368],[-35.8211564,65.5987505],[-35.80969749999999,65.6031105],[-35.79858080000001,65.60762000000001],[-34.4152218,66.1930538],[-34.3336092,66.2263412],[-34.327450999999996,66.22889279999998],[-34.317438499999994,66.2332421],[-33.8289445,66.4526411],[-33.42513330000001,66.61835179999999],[-33.41426789999999,66.62290629999998],[-33.4108556,66.62439699999999],[-33.397215300000006,66.6306709],[-33.384236099999995,66.6371627],[-33.371940499999994,66.64386160000001],[-33.360350000000004,66.65075609999998],[-33.34948479999999,66.65783449999999],[-33.3393641,66.66508479999999],[-33.3300058,66.6724946],[-33.1518303,66.821411],[-32.1144399,67.45866520000001],[-30.2832671,67.90098460000002],[-29.987706799999994,67.93738940000001],[-29.9774573,67.9386818],[-29.969816599999998,67.9397019],[-29.2237941,68.04493910000001],[-29.2150351,68.04623400000001],[-27.451212499999997,68.30965540000001],[-27.438732399999996,68.3115314],[-27.4294561,68.31301300000001],[-26.206921100000002,68.5176782],[-26.196761600000002,68.51937249999999],[-26.1866973,68.52114209999999],[-26.176732499999996,68.52298619999999],[-26.166871200000003,68.524904],[-26.157117600000003,68.5268947],[-26.147475600000003,68.5289576],[-26.1379492,68.5310918],[-26.128542399999997,68.53329640000001],[-25.424315999999997,68.7034941],[-25.416047,68.7054991],[-25.407877700000004,68.70755770000001],[-25.399810700000003,68.70966920000002],[-25.391848600000003,68.71183300000001],[-25.3839942,68.7140483],[-25.3762497,68.71631450000001],[-25.368617899999997,68.7186308],[-25.3611012,68.7209965],[-23.6980367,69.2617868],[-22.9239638,69.4956528],[-22.8529178,69.5169438],[-22.843717799999997,69.51980460000001],[-22.8346939,69.52273379999998],[-22.825850100000004,69.5257299],[-22.817190700000005,69.52879159999999],[-22.808719699999997,69.53191760000001],[-22.800441,69.5351063],[-22.7923584,69.53835629999999],[-22.7849446,69.54154660000002],[-21.8957504,69.8579468],[-21.8746699,69.8660837],[-21.854895100000007,69.8746024],[-21.836485400000004,69.88347799999998],[-21.819496700000002,69.89268440000001],[-21.80848,69.89943679999999],[-21.8053304,69.9008776],[-21.794236899999998,69.9039908],[-21.7762535,69.9094742],[-21.7589363,69.91520670000001],[-21.742314899999997,69.92117879999999],[-21.726417799999997,69.9273804],[-21.7227011,69.9289069],[-21.711272400000002,69.9338012],[-21.683533899999997,69.946087],[-21.6777978,69.94829870000001],[-21.663970400000004,69.9539015],[-21.6507458,69.9596738],[-21.6381419,69.9656078],[-21.626176100000002,69.9716958],[-21.6202104,69.97498350000001],[-21.6107249,69.9793354],[-21.580282499999996,69.9967029],[-21.5550923,70.0150326],[-21.5409086,70.0281526],[-21.5366565,70.0329414],[-21.5354247,70.03413809999999],[-21.533821500000002,70.0361343],[-21.529730899999997,70.0399289],[-21.525649399999995,70.04406600000002],[-21.522269599999998,70.0464012],[-21.514081700000006,70.0525736],[-21.5094215,70.0564276],[-21.270639799999994,70.22237349999999],[-21.005636599999995,70.40499060000002],[-21.0011458,70.4078951],[-20.992882199999997,70.41435510000001],[-20.9798263,70.42275249999999],[-20.967535999999996,70.43251590000001],[-20.965056699999998,70.43419040000002],[-20.958676799999996,70.4387867],[-20.9448391,70.4490878],[-20.9278236,70.46315170000001],[-20.92675,70.46427670000001],[-20.9142642,70.47476940000001],[-20.9019356,70.4877173],[-20.8011768,70.6145441],[-20.7965301,70.62075289999999],[-20.792482499999995,70.62700779999999],[-20.789038799999997,70.63330249999999],[-20.786203199999996,70.6396305],[-20.783979,70.64598529999999],[-20.782369099999997,70.65236049999999],[-20.7813758,70.65874949999998],[-20.7810006,70.66514579999999],[-20.780939799999995,70.67106209999999],[-20.781173,70.67733329999999],[-20.781858500000002,70.68277379999998],[-20.782412899999994,70.68569729999999],[-20.7830971,70.6886179],[-20.784854600000003,70.6944474],[-21.0096824,71.34451580000001],[-21.032123499999997,71.54751620000002],[-21.032459,71.55005849999999],[-21.0334373,71.55513789999999],[-21.034080000000003,71.5576743],[-21.0356724,71.56273809999998],[-21.0376732,71.5677875],[-21.224422399999998,71.99869490000002],[-21.337697600000002,72.2553054],[-21.027858800000004,72.59142480000001],[-20.571757700000003,73.0376373],[-19.828394499999998,73.3751214],[-19.817887200000005,73.38065940000001],[-19.807967800000004,73.38545739999999],[-19.795106899999997,73.392094],[-19.788650599999997,73.3956168],[-19.783774499999996,73.39839149999999],[-19.774346199999997,73.4040307],[-19.765534499999994,73.4097511],[-19.7573484,73.4155471],[-19.749796499999995,73.42141310000001],[-19.742409499999994,73.4278],[-19.739413199999998,73.42965360000002],[-19.725536299999995,73.4393017],[-19.394059400000003,73.6910967],[-18.712394,74.1744834],[-18.5917139,74.223764],[-17.7969633,74.48513209999999],[-17.785723199999993,74.48883479999999],[-17.774811800000002,74.4926078],[-17.7642354,74.4964488],[-17.7540003,74.5003558],[-16.888109199999995,74.8408443],[-16.7575276,74.8898857],[-16.748793499999994,74.892855],[-16.7329825,74.8986409],[-16.717959800000003,74.90456860000002],[-16.703744799999996,74.91063090000002],[-16.6903562,74.91682020000002],[-16.6763995,74.9238745],[-16.6661277,74.92954879999999],[-16.6594164,74.93351640000002],[-16.6532522,74.93738],[-16.645457,74.94265130000001],[-16.6395393,74.94603060000001],[-16.630257700000005,74.95171360000002],[-16.6216505,74.95746820000001],[-16.6137268,74.9632888],[-16.606604700000002,74.9690755],[-16.5996643,74.97539309999999],[-16.5933036,74.98196900000002],[-16.587803100000002,74.9885969],[-16.583170199999998,74.99526930000002],[-16.5794113,75.00197849999999],[-16.576531999999997,75.0087169],[-16.5745367,75.0154766],[-16.5736018,75.0211923],[-16.5706244,75.02602879999999],[-16.5678412,75.0314807],[-16.566203299999998,75.03516950000001],[-16.563423299999997,75.0429663],[-16.5618278,75.05078529999999],[-16.561421,75.05861440000001],[-16.561640399999998,75.0641571],[-16.562661999999996,75.0709742],[-16.557815500000004,75.0754006],[-16.5537064,75.0795092],[-16.549935100000003,75.08363940000001],[-16.5463604,75.0879189],[-16.543503799999996,75.09171370000001],[-16.540931999999998,75.0955218],[-16.5391375,75.0985208],[-16.5363706,75.10220279999999],[-16.5330893,75.10725990000002],[-16.5303123,75.11233699999998],[-16.528042099999997,75.1174307],[-16.5261565,75.12295829999998],[-16.524458900000003,75.13072340000001],[-16.52394,75.1384997],[-16.524602499999997,75.1462752],[-16.5264471,75.15403819999999],[-16.5294729,75.16177689999999],[-16.533677,75.1694794],[-16.539054900000004,75.17713409999999],[-16.546054400000003,75.18521109999999],[-16.5522003,75.191306],[-16.559100100000002,75.19734809999999],[-16.566747699999997,75.20333129999999],[-16.575136299999997,75.20924980000001],[-16.584258300000002,75.2150974],[-16.594105400000004,75.22086829999999],[-16.604668400000005,75.2265567],[-16.615937600000002,75.2321568],[-16.619520100000003,75.2337611],[-16.6262903,75.2372028],[-16.6335315,75.2407067],[-16.6442562,75.24560460000002],[-16.656892600000003,75.25098799999999],[-16.6750445,75.25812690000001],[-16.683542199999994,75.2611784],[-17.2538235,75.4859682],[-17.489784899999997,75.8154332],[-17.6417539,76.02373269999998],[-17.6361127,76.03316480000001],[-17.634299600000002,76.03643829999999],[-17.6327104,76.03971849999999],[-17.631345600000003,76.04300460000002],[-17.630205700000005,76.04629580000001],[-17.629291400000003,76.049591],[-17.628545999999996,76.05322240000001],[-17.627904800000003,76.0594922],[-17.6271862,76.07883779999997],[-17.627902300000002,76.0891053],[-17.630816100000004,76.0993505],[-17.635924600000003,76.1095459],[-17.6432191,76.11966460000002],[-17.648038999999997,76.1247643],[-17.6488063,76.12853659999999],[-17.651872000000004,76.1350159],[-17.6514463,76.13502829999999],[-17.653928200000003,76.13936149999999],[-17.654820700000005,76.14124760000001],[-17.657910200000003,76.14631360000001],[-17.6784253,76.1698652],[-17.7107283,76.192652],[-17.7160862,76.19531269999999],[-17.7161793,76.20106910000001],[-17.7186012,76.22889029999999],[-17.7192255,76.2334972],[-17.7202971,76.2380995],[-17.721815900000003,76.24269470000002],[-17.7237816,76.24728020000002],[-17.727839799999998,76.25529960000001],[-17.7271931,76.2588914],[-17.726623399999998,76.26418560000002],[-17.7266451,76.2694816],[-17.727258900000002,76.2747756],[-17.7284649,76.28006380000001],[-17.730263100000002,76.28534259999999],[-17.732652799999997,76.29060820000001],[-17.735039599999997,76.29489120000001],[-17.7392023,76.3010849],[-17.7567456,76.32473279999998],[-17.7638118,76.33317879999998],[-17.772421999999995,76.34154470000001],[-17.782562899999995,76.34981470000001],[-17.794218100000002,76.3579734],[-17.807368200000003,76.3660052],[-17.821991000000004,76.37389509999998],[-17.8262667,76.37595249999998],[-17.838365200000002,76.3899093],[-17.842509899999996,76.3943854],[-17.842438899999998,76.40282470000001],[-17.8430748,76.40892600000001],[-17.8467064,76.4299985],[-17.847949,76.43462090000003],[-17.849649399999997,76.43923520000001],[-17.853057300000003,76.4461361],[-17.8533345,76.44612700000002],[-17.859895900000005,76.4581341],[-17.862590199999996,76.4624929],[-17.865696499999995,76.4668367],[-17.869213499999997,76.47116330000001],[-17.873139899999998,76.47547069999999],[-17.875530499999996,76.47760350000001],[-17.7743315,76.5381812],[-17.766199899999997,76.54322270000002],[-17.761599699999998,76.5462712],[-17.6910303,76.59429170000001],[-17.59151,76.66007709999998],[-17.4515971,76.7582487],[-17.4368966,76.7717799],[-17.4165594,76.7950497],[-17.414890600000003,76.7984915],[-17.4028486,76.803509],[-17.374823600000003,76.8176718],[-17.351658600000004,76.8322867],[-17.3335078,76.84726650000002],[-17.3204969,76.86252160000001],[-17.3152242,76.8717145],[-17.3136061,76.8762043],[-17.3127218,76.8779603],[-17.3087374,76.89047769999999],[-17.307954100000007,76.8943241],[-17.3074978,76.8981733],[-17.3074768,76.90411240000002],[-17.304398300000003,76.90820970000001],[-17.3009992,76.91362170000002],[-17.2982533,76.9190528],[-17.2961634,76.9244988],[-17.294731999999996,76.92995570000001],[-17.293960900000002,76.93541940000001],[-17.293273199999998,76.94394750000001],[-17.293134199999997,76.94842440000002],[-17.293439799999994,76.9529009],[-17.297406199999998,76.9862882],[-17.296907700000002,76.99869380000001],[-17.293515,77.0032838],[-17.289551499999998,77.0100706],[-17.286621999999994,77.01688390000001],[-17.284731299999997,77.0237157],[-17.2838833,77.0305581],[-17.284144599999998,77.0379763],[-17.285324599999996,77.04424230000001],[-17.287590599999998,77.05235179999998],[-17.2890917,77.05620640000001],[-17.2909269,77.06005370000001],[-17.2930959,77.06389229999999],[-17.2964988,77.0689332],[-17.296722699999997,77.0697645],[-17.2964555,77.0745024],[-17.2966747,77.0792756],[-17.295842499999996,77.08588219999999],[-17.295978400000003,77.09213809999999],[-17.2969922,77.0983899],[-17.2988842,77.1046316],[-17.3004579,77.1081689],[-17.2966618,77.1138584],[-17.294696899999998,77.1173732],[-17.293011,77.12089519999999],[-17.2916049,77.1244233],[-17.290479199999996,77.1279564],[-17.289480499999996,77.13230479999999],[-17.288789999999995,77.13857449999999],[-17.288474499999996,77.1465397],[-17.288526199999993,77.1510742],[-17.289041199999996,77.15560719999999],[-17.290019599999997,77.1601365],[-17.2914616,77.16465960000002],[-17.2934047,77.1692465],[-17.292796199999994,77.17409179999999],[-17.292523499999994,77.1815183],[-17.2929247,77.1861251],[-17.293431999999996,77.1890664],[-17.2944258,77.1930282],[-17.296130199999997,77.1980933],[-17.2999067,77.20656650000001],[-17.305139799999996,77.21471980000001],[-16.8440476,77.53522060000002],[-16.8239369,77.54198260000001],[-16.8009638,77.5506124],[-16.7799833,77.55947669999999],[-16.761050700000002,77.5685538],[-16.744216499999997,77.5778217],[-16.729526499999995,77.5872578],[-16.724645999999996,77.5907849],[-16.715815400000004,77.59786790000001],[-16.7088904,77.6026944],[-16.7028628,77.60722410000001],[-16.6986484,77.610646],[-16.694715100000003,77.6140833],[-16.691064500000003,77.617535],[-16.6876979,77.62100009999999],[-16.6846166,77.62447729999998],[-16.681821700000004,77.62796560000001],[-16.6793145,77.63146400000001],[-16.676215300000003,77.6362348],[-16.672897600000002,77.6425704],[-16.671024700000004,77.64743560000001],[-16.6656876,77.6532069],[-16.663537499999997,77.65583099999998],[-16.6603823,77.6601495],[-16.6505127,77.66446340000002],[-16.6377266,77.67060799999999],[-16.625627299999998,77.67556729999998],[-16.5988461,77.6887556],[-16.585709099999995,77.6963597],[-16.5758035,77.7028176],[-16.561653,77.71355220000001],[-16.555327899999998,77.71962670000002],[-16.549676899999998,77.7239084],[-16.544987000000003,77.7278063],[-16.5376431,77.73463310000001],[-16.528584499999997,77.7437372],[-16.5248122,77.74786900000002],[-16.522372899999997,77.75080779999999],[-16.5181136,77.7567069],[-16.514684000000003,77.7626303],[-16.512088300000002,77.76857279999999],[-16.5104705,77.773296],[-16.5093743,77.7778816],[-16.50892,77.78094109999999],[-16.5084964,77.7868158],[-16.5085884,77.79096570000002],[-16.5090885,77.79511440000002],[-16.5099969,77.79925990000002],[-16.511785300000003,77.8048482],[-16.5140929,77.8101929],[-16.516431,77.814698],[-16.519254900000004,77.81919070000001],[-16.522563599999998,77.8236687],[-16.526355900000002,77.82812960000001],[-16.530630499999997,77.83257119999999],[-16.532589799999997,77.83439249999999],[-16.5400607,77.8423265],[-16.551170300000003,77.85297579999998],[-16.5564259,77.85747549999999],[-16.565858000000002,77.8649883],[-16.573965000000005,77.8709062],[-16.582234999999997,77.8763209],[-16.592411199999997,77.88331629999999],[-16.607034100000003,77.8926407],[-16.613988900000006,77.8966887],[-16.620957700000005,77.9004727],[-16.629064600000003,77.9056],[-16.6345218,77.90879709999999],[-16.6411378,77.9124581],[-16.646219799999997,77.91513040000001],[-16.654022700000002,77.918975],[-16.661644799999998,77.9231858],[-16.669258300000003,77.92714570000001],[-16.9070459,78.74332790000001],[-16.6066835,78.9811789],[-16.608769799999997,78.99051660000002],[-16.5934414,79.0035489],[-16.5860347,79.00747249999999],[-16.574657900000002,79.01393420000001],[-16.564432499999995,79.0204657],[-16.5553723,79.02705970000001],[-16.547489799999997,79.0337086],[-16.540796199999996,79.04040450000001],[-16.5353013,79.04714000000001],[-16.5310139,79.05390709999999],[-16.5279409,79.060698],[-16.528238799999997,79.06070129999999],[-16.524825200000002,79.069291],[-16.5231618,79.0751191],[-16.522396699999998,79.08095390000001],[-16.522531999999995,79.0867904],[-16.523632399999997,79.09281390000001],[-16.5208663,79.0964285],[-16.515441999999997,79.1095033],[-16.514565600000005,79.1226172],[-16.518257100000003,79.1357136],[-16.526516799999996,79.14873589999999],[-16.539325100000003,79.16162750000001],[-16.5545839,79.17282309999999],[-16.5751276,79.1974843],[-16.772349399999996,79.53374649999999],[-16.834807300000005,79.63806340000001],[-16.8305893,79.63913709999999],[-16.811762400000003,79.6444361],[-16.8005379,79.6478903],[-16.7938995,79.64982390000002],[-16.740241999999995,79.66656990000001],[-16.7069136,79.6777649],[-16.677552900000002,79.68931409999999],[-16.6522892,79.7011719],[-16.6444388,79.7056912],[-16.639290300000003,79.70803409999999],[-16.614962800000004,79.71686500000001],[-16.5943324,79.72571719999999],[-16.5854653,79.730097],[-16.582117999999998,79.73159860000001],[-16.5756177,79.73496120000001],[-16.5544825,79.74460590000002],[-16.5387371,79.754281],[-16.524715999999998,79.7589931],[-16.498790699999997,79.7689815],[-16.4910481,79.77244829999998],[-16.4324687,79.7900405],[-16.395519599999997,79.8073179],[-16.326158900000003,79.8339082],[-16.3210245,79.83725020000001],[-16.3029343,79.8431412],[-16.284785499999998,79.8495873],[-16.2679444,79.8561437],[-16.257741199999998,79.86052420000001],[-15.353833600000002,80.1181912],[-15.3371972,80.1225116],[-15.315718,80.12837719999997],[-15.2954136,80.1343657],[-15.2763098,80.1404702],[-15.2584311,80.14668350000001],[-15.241800899999998,80.15299849999998],[-15.226441,80.1594076],[-15.2193902,80.16266300000001],[-15.198191199999998,80.1672613],[-15.170079399999999,80.17370039999999],[-15.143471499999999,80.1803252],[-15.1184123,80.18712540000001],[-15.094944,80.1940901],[-15.0731071,80.20120860000002],[-15.052939400000001,80.20846960000002],[-15.034476399999999,80.2158617],[-15.0306625,80.21749750000001],[-15.017751099999998,80.2233732],[-15.015322099999999,80.22468160000001],[-15.006329899999999,80.22599609999999],[-14.917741099999999,80.2420747],[-14.8398418,80.25969070000001],[-14.822756400000001,80.264578],[-14.7897708,80.2732105],[-14.7764797,80.2773972],[-13.0985567,80.44887360000001],[-13.0717509,80.45166160000002],[-13.0498941,80.45406290000001],[-13.028346899999999,80.4565412],[-13.007119099999999,80.4590955],[-12.9862205,80.46172450000002],[-12.965660800000002,80.46442710000001],[-12.945449600000002,80.46720210000001],[-12.796827599999999,80.48808340000001],[-12.788674999999998,80.48932760000001],[-12.768246,80.49221070000002],[-12.7190566,80.4999523],[-12.647680399999999,80.5128845],[-12.5832509,80.52678499999999],[-12.526275399999998,80.54155100000001],[-12.4772118,80.557073],[-12.4364656,80.5732354],[-12.404385,80.589917],[-12.3812578,80.6069922],[-12.047843099999998,80.9152371],[-11.6232265,80.9868515],[-11.5730994,80.9997423],[-11.5198913,81.0103415],[-11.4712564,81.02147109999999],[-11.4274253,81.03308209999999],[-11.3886099,81.04512360000003],[-11.355002200000003,81.05754209999999],[-11.348674399999998,81.06039799999999],[-11.302113,81.0654105],[-11.284421099999998,81.0673905],[-11.2662949,81.06949209999999],[-11.160118899999999,81.08233029999998],[-11.128809799999999,81.0862461],[-11.0234581,81.10007869999998],[-11.0004533,81.1031756],[-10.89361,81.1182555],[-10.874556200000002,81.1210046],[-10.860496000000003,81.1231045],[-10.7692853,81.1370331],[-10.7414315,81.14141980000001],[-10.7251309,81.14411350000002],[-10.650099800000001,81.1567132],[-10.6344222,81.15939429999999],[-10.6190526,81.1621179],[-10.6039963,81.1648831],[-10.530675699999998,81.17902709999998],[-10.5115502,81.1828206],[-10.4930083,81.1866824],[-10.4579574,81.1943849],[-10.4422421,81.19799760000001],[-10.4147106,81.2045789],[-10.402542500000003,81.2076318],[-10.3873038,81.21163430000001],[-10.372484900000003,81.215692],[-10.356704100000002,81.2201574],[-10.3490879,81.22241249999999],[-10.3344103,81.22696570000001],[-10.3204813,81.23157370000001],[-10.2980362,81.2395565],[-10.2891646,81.24294300000001],[-10.281291199999998,81.24611320000002],[-10.1621626,81.28350590000001],[-10.1595773,81.2844901],[-10.144679799999999,81.28919090000001],[-10.090254,81.3108797],[-10.0454146,81.3395497],[-10.028875899999997,81.36890149999999],[-10.041283199999999,81.39829970000001]]]]}}]}